{"type":"FeatureCollection","features":[{"type":"Feature","properties":{"contour_minutes":5,"description":"Walk-5 isochrone around Lorca historic centre","merchant_count":12,"mode":"walk"},"geometry":{"type":"MultiPolygon","coordinates":[[[[-1.692147,37.6706],[-1.692169,37.670953],[-1.692235,37.671303],[-1.692343,37.671646],[-1.692494,37.671979],[-1.692685,37.672299],[-1.692915,37.672602],[-1.693181,37.672886],[-1.693481,37.673148],[-1.693812,37.673386],[-1.694171,37.673596],[-1.694554,37.673778],[-1.694958,37.673929],[-1.695378,37.674048],[-1.695812,37.674134],[-1.696254,37.674186],[-1.6967,37.674204],[-1.697146,37.674186],[-1.697588,37.674134],[-1.698022,37.674048],[-1.698442,37.673929],[-1.698846,37.673778],[-1.699229,37.673596],[-1.699588,37.673386],[-1.699919,37.673148],[-1.700219,37.672886],[-1.700485,37.672602],[-1.700715,37.672299],[-1.700906,37.671979],[-1.701057,37.671646],[-1.701165,37.671303],[-1.701231,37.670953],[-1.701253,37.6706],[-1.701231,37.670247],[-1.701165,37.669897],[-1.701057,37.669554],[-1.700906,37.669221],[-1.700715,37.668901],[-1.700485,37.668598],[-1.700219,37.668314],[-1.699919,37.668052],[-1.699588,37.667814],[-1.699229,37.667604],[-1.698846,37.667422],[-1.698442,37.667271],[-1.698022,37.667152],[-1.697588,37.667066],[-1.697146,37.667014],[-1.6967,37.666996],[-1.696254,37.667014],[-1.695812,37.667066],[-1.695378,37.667152],[-1.694958,37.667271],[-1.694554,37.667422],[-1.694171,37.667604],[-1.693812,37.667814],[-1.693481,37.668052],[-1.693181,37.668314],[-1.692915,37.668598],[-1.692685,37.668901],[-1.692494,37.669221],[-1.692343,37.669554],[-1.692235,37.669897],[-1.692169,37.670247],[-1.692147,37.6706]]]]}}]}