{
  "type": "Feature",
  "geometry": {
    "type": "MultiPolygon",
    "coordinates": [
      [
        [
          [
            2.099471,
            41.378143
          ],
          [
            2.097132,
            41.376766
          ],
          [
            2.097072,
            41.376699
          ],
          [
            2.09472,
            41.374967
          ],
          [
            2.094674,
            41.374947
          ],
          [
            2.094639,
            41.374942
          ],
          [
            2.092275,
            41.374949
          ],
          [
            2.092247,
            41.374947
          ],
          [
            2.089877,
            41.373876
          ],
          [
            2.088435,
            41.373169
          ],
          [
            2.087478,
            41.37193
          ],
          [
            2.08663,
            41.37137
          ],
          [
            2.08508,
            41.370587
          ],
          [
            2.084351,
            41.369571
          ],
          [
            2.083598,
            41.36846
          ],
          [
            2.083219,
            41.367773
          ],
          [
            2.082681,
            41.366639
          ],
          [
            2.082216,
            41.365974
          ],
          [
            2.080283,
            41.364429
          ],
          [
            2.080046,
            41.364175
          ],
          [
            2.080032,
            41.363988
          ],
          [
            2.080283,
            41.363324
          ],
          [
            2.080547,
            41.362576
          ],
          [
            2.080547,
            41.362377
          ],
          [
            2.080508,
            41.360747
          ],
          [
            2.080821,
            41.360578
          ],
          [
            2.080283,
            41.360185
          ],
          [
            2.079893,
            41.360286
          ],
          [
            2.077884,
            41.360108
          ],
          [
            2.076641,
            41.35878
          ],
          [
            2.076592,
            41.35781
          ],
          [
            2.076361,
            41.356981
          ],
          [
            2.07684,
            41.356198
          ],
          [
            2.077884,
            41.355737
          ],
          [
            2.079029,
            41.356041
          ],
          [
            2.080283,
            41.355899
          ],
          [
            2.081251,
            41.355908
          ],
          [
            2.08158,
            41.355182
          ],
          [
            2.082199,
            41.354821
          ],
          [
            2.082681,
            41.35447
          ],
          [
            2.083352,
            41.353887
          ],
          [
            2.084581,
            41.353384
          ],
          [
            2.084934,
            41.353274
          ],
          [
            2.08508,
            41.35316
          ],
          [
            2.086585,
            41.352714
          ],
          [
            2.087478,
            41.351682
          ],
          [
            2.087515,
            41.351613
          ],
          [
            2.087546,
            41.351585
          ],
          [
            2.08794,
            41.350133
          ],
          [
            2.089877,
            41.349875
          ],
          [
            2.089952,
            41.349843
          ],
          [
            2.092275,
            41.350138
          ],
          [
            2.092576,
            41.350012
          ],
          [
            2.093164,
            41.349786
          ],
          [
            2.093824,
            41.349149
          ],
          [
            2.094674,
            41.348417
          ],
          [
            2.094961,
            41.348203
          ],
          [
            2.09526,
            41.347988
          ],
          [
            2.096182,
            41.34732
          ],
          [
            2.096601,
            41.346189
          ],
          [
            2.096536,
            41.345787
          ],
          [
            2.09563,
            41.34439
          ],
          [
            2.096276,
            41.343793
          ],
          [
            2.096795,
            41.342592
          ],
          [
            2.096749,
            41.34235
          ],
          [
            2.097072,
            41.342138
          ],
          [
            2.097802,
            41.34134
          ],
          [
            2.098064,
            41.340793
          ],
          [
            2.098189,
            41.339832
          ],
          [
            2.098513,
            41.338995
          ],
          [
            2.098528,
            41.338288
          ],
          [
            2.099471,
            41.338064
          ],
          [
            2.100518,
            41.337981
          ],
          [
            2.101869,
            41.338277
          ],
          [
            2.102765,
            41.338995
          ],
          [
            2.102908,
            41.339774
          ],
          [
            2.103338,
            41.340793
          ],
          [
            2.104268,
            41.341577
          ],
          [
            2.105076,
            41.341399
          ],
          [
            2.105812,
            41.340793
          ],
          [
            2.105943,
            41.340251
          ],
          [
            2.106666,
            41.340689
          ],
          [
            2.10906,
            41.340793
          ],
          [
            2.109065,
            41.340794
          ],
          [
            2.109066,
            41.340794
          ],
          [
            2.109066,
            41.340793
          ],
          [
            2.110959,
            41.340415
          ],
          [
            2.111463,
            41.339069
          ],
          [
            2.112236,
            41.339574
          ],
          [
            2.113862,
            41.340535
          ],
          [
            2.114157,
            41.340793
          ],
          [
            2.114144,
            41.341005
          ],
          [
            2.114467,
            41.342592
          ],
          [
            2.11626,
            41.34364
          ],
          [
            2.117262,
            41.343343
          ],
          [
            2.118659,
            41.342721
          ],
          [
            2.119233,
            41.34439
          ],
          [
            2.119327,
            41.344892
          ],
          [
            2.119266,
            41.346189
          ],
          [
            2.119368,
            41.346721
          ],
          [
            2.119279,
            41.347988
          ],
          [
            2.121057,
            41.3493
          ],
          [
            2.121578,
            41.349786
          ],
          [
            2.122399,
            41.350793
          ],
          [
            2.123108,
            41.351585
          ],
          [
            2.123456,
            41.352066
          ],
          [
            2.124403,
            41.353384
          ],
          [
            2.125854,
            41.354986
          ],
          [
            2.126251,
            41.355182
          ],
          [
            2.126489,
            41.355658
          ],
          [
            2.127378,
            41.356981
          ],
          [
            2.127067,
            41.357891
          ],
          [
            2.125854,
            41.358144
          ],
          [
            2.124718,
            41.357928
          ],
          [
            2.123456,
            41.357977
          ],
          [
            2.121714,
            41.356981
          ],
          [
            2.121057,
            41.356706
          ],
          [
            2.120893,
            41.356858
          ],
          [
            2.120693,
            41.356981
          ],
          [
            2.121057,
            41.357903
          ],
          [
            2.121796,
            41.35878
          ],
          [
            2.123456,
            41.359227
          ],
          [
            2.125389,
            41.360578
          ],
          [
            2.125854,
            41.360862
          ],
          [
            2.126382,
            41.360974
          ],
          [
            2.128253,
            41.361149
          ],
          [
            2.129224,
            41.361307
          ],
          [
            2.130651,
            41.361475
          ],
          [
            2.13243,
            41.361912
          ],
          [
            2.13305,
            41.362173
          ],
          [
            2.133423,
            41.362377
          ],
          [
            2.134016,
            41.363102
          ],
          [
            2.134884,
            41.364175
          ],
          [
            2.135448,
            41.365087
          ],
          [
            2.135958,
            41.365974
          ],
          [
            2.136352,
            41.366652
          ],
          [
            2.137302,
            41.367773
          ],
          [
            2.137847,
            41.36832
          ],
          [
            2.13959,
            41.369571
          ],
          [
            2.140245,
            41.369991
          ],
          [
            2.140886,
            41.370052
          ],
          [
            2.142644,
            41.370434
          ],
          [
            2.144226,
            41.370758
          ],
          [
            2.145042,
            41.370809
          ],
          [
            2.146713,
            41.370824
          ],
          [
            2.147441,
            41.370884
          ],
          [
            2.148614,
            41.370451
          ],
          [
            2.149839,
            41.37037
          ],
          [
            2.150865,
            41.370341
          ],
          [
            2.152238,
            41.37013
          ],
          [
            2.153623,
            41.37137
          ],
          [
            2.154372,
            41.372971
          ],
          [
            2.154477,
            41.373169
          ],
          [
            2.154636,
            41.373527
          ],
          [
            2.156087,
            41.374967
          ],
          [
            2.157035,
            41.375837
          ],
          [
            2.158204,
            41.376766
          ],
          [
            2.158088,
            41.377556
          ],
          [
            2.158586,
            41.378565
          ],
          [
            2.159433,
            41.37979
          ],
          [
            2.159982,
            41.380363
          ],
          [
            2.161693,
            41.382058
          ],
          [
            2.16181,
            41.382162
          ],
          [
            2.161832,
            41.382205
          ],
          [
            2.162095,
            41.382359
          ],
          [
            2.16423,
            41.383693
          ],
          [
            2.164719,
            41.383961
          ],
          [
            2.166629,
            41.385461
          ],
          [
            2.168295,
            41.38521
          ],
          [
            2.169027,
            41.385391
          ],
          [
            2.170247,
            41.385759
          ],
          [
            2.17142,
            41.387554
          ],
          [
            2.171423,
            41.387558
          ],
          [
            2.170028,
            41.388308
          ],
          [
            2.169027,
            41.38844
          ],
          [
            2.167405,
            41.387558
          ],
          [
            2.166629,
            41.386296
          ],
          [
            2.165975,
            41.387068
          ],
          [
            2.16423,
            41.386815
          ],
          [
            2.16189,
            41.385759
          ],
          [
            2.161832,
            41.385717
          ],
          [
            2.161798,
            41.385734
          ],
          [
            2.159433,
            41.38496
          ],
          [
            2.157336,
            41.384187
          ],
          [
            2.157035,
            41.384121
          ],
          [
            2.156779,
            41.383961
          ],
          [
            2.154636,
            41.382557
          ],
          [
            2.153373,
            41.382162
          ],
          [
            2.152238,
            41.381866
          ],
          [
            2.150696,
            41.381006
          ],
          [
            2.149839,
            41.38062
          ],
          [
            2.149567,
            41.380363
          ],
          [
            2.147441,
            41.379204
          ],
          [
            2.146065,
            41.379331
          ],
          [
            2.145042,
            41.379453
          ],
          [
            2.143573,
            41.379261
          ],
          [
            2.142738,
            41.380363
          ],
          [
            2.142695,
            41.380402
          ],
          [
            2.142644,
            41.380458
          ],
          [
            2.141535,
            41.381331
          ],
          [
            2.140245,
            41.381764
          ],
          [
            2.139624,
            41.381696
          ],
          [
            2.137847,
            41.381164
          ],
          [
            2.13643,
            41.381099
          ],
          [
            2.135448,
            41.381021
          ],
          [
            2.133319,
            41.380363
          ],
          [
            2.13305,
            41.380259
          ],
          [
            2.132498,
            41.379949
          ],
          [
            2.130651,
            41.378882
          ],
          [
            2.129887,
            41.378565
          ],
          [
            2.128253,
            41.377637
          ],
          [
            2.127157,
            41.377743
          ],
          [
            2.125854,
            41.377737
          ],
          [
            2.125339,
            41.378178
          ],
          [
            2.124924,
            41.378565
          ],
          [
            2.124503,
            41.37935
          ],
          [
            2.123456,
            41.379447
          ],
          [
            2.122611,
            41.37973
          ],
          [
            2.121057,
            41.379827
          ],
          [
            2.120421,
            41.379886
          ],
          [
            2.118659,
            41.380334
          ],
          [
            2.11863,
            41.380342
          ],
          [
            2.11626,
            41.379931
          ],
          [
            2.11506,
            41.379464
          ],
          [
            2.113862,
            41.379313
          ],
          [
            2.112023,
            41.378565
          ],
          [
            2.111463,
            41.378181
          ],
          [
            2.11075,
            41.37803
          ],
          [
            2.109065,
            41.3775
          ],
          [
            2.107643,
            41.377499
          ],
          [
            2.106666,
            41.377317
          ],
          [
            2.105302,
            41.377541
          ],
          [
            2.104268,
            41.37768
          ],
          [
            2.103288,
            41.37783
          ],
          [
            2.101869,
            41.378139
          ],
          [
            2.101252,
            41.378102
          ],
          [
            2.099471,
            41.378143
          ]
        ]
      ],
      [
        [
          [
            2.068168,
            41.35689
          ],
          [
            2.06829,
            41.356779
          ],
          [
            2.070141,
            41.35657
          ],
          [
            2.070689,
            41.35636
          ],
          [
            2.071582,
            41.356981
          ],
          [
            2.07131,
            41.357447
          ],
          [
            2.070689,
            41.357763
          ],
          [
            2.068884,
            41.357426
          ],
          [
            2.06829,
            41.357219
          ],
          [
            2.068139,
            41.356981
          ],
          [
            2.068168,
            41.35689
          ]
        ]
      ],
      [
        [
          [
            2.111219,
            41.383778
          ],
          [
            2.111463,
            41.383669
          ],
          [
            2.112044,
            41.383961
          ],
          [
            2.111833,
            41.384238
          ],
          [
            2.111463,
            41.384367
          ],
          [
            2.110936,
            41.383961
          ],
          [
            2.111219,
            41.383778
          ]
        ]
      ],
      [
        [
          [
            2.130628,
            41.351568
          ],
          [
            2.130651,
            41.351567
          ],
          [
            2.13069,
            41.351585
          ],
          [
            2.130698,
            41.351621
          ],
          [
            2.130651,
            41.351653
          ],
          [
            2.130604,
            41.351585
          ],
          [
            2.130628,
            41.351568
          ]
        ]
      ]
    ]
  },
  "properties": {
    "location": "casa",
    "minutes": 30,
    "mode": "transit"
  }
}
