{
  "type": "Feature",
  "geometry": {
    "type": "Polygon",
    "coordinates": [
      [
        [
          2.101000,
          41.379867
        ],
        [
          2.096532,
          41.378968
        ],
        [
          2.096000,
          41.377341
        ],
        [
          2.095249,
          41.378749
        ],
        [
          2.090000,
          41.378988
        ],
        [
          2.085591,
          41.376909
        ],
        [
          2.083339,
          41.374500
        ],
        [
          2.079755,
          41.372745
        ],
        [
          2.079640,
          41.370500
        ],
        [
          2.075603,
          41.364500
        ],
        [
          2.077527,
          41.361500
        ],
        [
          2.074935,
          41.355500
        ],
        [
          2.075130,
          41.352500
        ],
        [
          2.077000,
          41.351717
        ],
        [
          2.078000,
          41.352083
        ],
        [
          2.080000,
          41.350852
        ],
        [
          2.081150,
          41.351650
        ],
        [
          2.080706,
          41.350206
        ],
        [
          2.082674,
          41.349500
        ],
        [
          2.082000,
          41.347366
        ],
        [
          2.084000,
          41.347781
        ],
        [
          2.087000,
          41.346390
        ],
        [
          2.088100,
          41.346600
        ],
        [
          2.088731,
          41.345231
        ],
        [
          2.092000,
          41.346697
        ],
        [
          2.093000,
          41.345781
        ],
        [
          2.096363,
          41.345500
        ],
        [
          2.096000,
          41.343445
        ],
        [
          2.096590,
          41.343910
        ],
        [
          2.099053,
          41.343447
        ],
        [
          2.100000,
          41.344205
        ],
        [
          2.105000,
          41.342945
        ],
        [
          2.108000,
          41.343696
        ],
        [
          2.109000,
          41.342262
        ],
        [
          2.110000,
          41.342262
        ],
        [
          2.111490,
          41.343010
        ],
        [
          2.112553,
          41.345500
        ],
        [
          2.115234,
          41.346266
        ],
        [
          2.116000,
          41.348637
        ],
        [
          2.119000,
          41.349158
        ],
        [
          2.121551,
          41.350949
        ],
        [
          2.122487,
          41.354500
        ],
        [
          2.125416,
          41.356500
        ],
        [
          2.124884,
          41.359616
        ],
        [
          2.128133,
          41.363500
        ],
        [
          2.129740,
          41.367500
        ],
        [
          2.127537,
          41.369037
        ],
        [
          2.125000,
          41.368703
        ],
        [
          2.124162,
          41.372662
        ],
        [
          2.115000,
          41.375818
        ],
        [
          2.112156,
          41.378500
        ],
        [
          2.110000,
          41.377951
        ],
        [
          2.108000,
          41.379496
        ],
        [
          2.106443,
          41.377943
        ],
        [
          2.105305,
          41.378805
        ],
        [
          2.101000,
          41.379867
        ]
      ]
    ]
  },
  "properties": {
    "location": "casa",
    "minutes": 30,
    "mode": "walk"
  }
}
