{
  "type": "Feature",
  "geometry": {
    "type": "Polygon",
    "coordinates": [
      [
        [
          2.104000,
          41.363911
        ],
        [
          2.100000,
          41.364340
        ],
        [
          2.097702,
          41.362500
        ],
        [
          2.097681,
          41.360181
        ],
        [
          2.102000,
          41.357877
        ],
        [
          2.103000,
          41.357910
        ],
        [
          2.106795,
          41.361500
        ],
        [
          2.106000,
          41.362642
        ],
        [
          2.103857,
          41.362357
        ],
        [
          2.104848,
          41.363500
        ],
        [
          2.104000,
          41.363911
        ]
      ]
    ]
  },
  "properties": {
    "location": "casa",
    "minutes": 5,
    "mode": "walk"
  }
}
