{
  "type": "Feature",
  "geometry": {
    "type": "Polygon",
    "coordinates": [
      [
        [
          2.104000,
          41.370717
        ],
        [
          2.099805,
          41.369695
        ],
        [
          2.097000,
          41.369846
        ],
        [
          2.096000,
          41.369120
        ],
        [
          2.094000,
          41.369837
        ],
        [
          2.092776,
          41.368724
        ],
        [
          2.093735,
          41.367500
        ],
        [
          2.093187,
          41.366313
        ],
        [
          2.089941,
          41.366559
        ],
        [
          2.088795,
          41.363500
        ],
        [
          2.090280,
          41.362500
        ],
        [
          2.089001,
          41.360500
        ],
        [
          2.090500,
          41.359500
        ],
        [
          2.088736,
          41.357500
        ],
        [
          2.092401,
          41.355901
        ],
        [
          2.095000,
          41.353570
        ],
        [
          2.096242,
          41.353742
        ],
        [
          2.099067,
          41.352433
        ],
        [
          2.100000,
          41.353705
        ],
        [
          2.100742,
          41.352242
        ],
        [
          2.107000,
          41.351558
        ],
        [
          2.112062,
          41.355438
        ],
        [
          2.115698,
          41.364500
        ],
        [
          2.111000,
          41.367550
        ],
        [
          2.108000,
          41.367819
        ],
        [
          2.104000,
          41.370717
        ]
      ]
    ]
  },
  "properties": {
    "location": "casa",
    "minutes": 15,
    "mode": "walk"
  }
}
