{
  "type": "Feature",
  "geometry": {
    "type": "MultiPolygon",
    "coordinates": [
      [
        [
          [
            2.180312,
            41.418135
          ],
          [
            2.178621,
            41.417281
          ],
          [
            2.177807,
            41.416336
          ],
          [
            2.176223,
            41.414619
          ],
          [
            2.176065,
            41.414537
          ],
          [
            2.173824,
            41.413749
          ],
          [
            2.172533,
            41.412739
          ],
          [
            2.171854,
            41.411261
          ],
          [
            2.171596,
            41.41094
          ],
          [
            2.171426,
            41.409937
          ],
          [
            2.170977,
            41.409141
          ],
          [
            2.169027,
            41.407705
          ],
          [
            2.168671,
            41.407343
          ],
          [
            2.168526,
            41.406967
          ],
          [
            2.167627,
            41.405544
          ],
          [
            2.166629,
            41.404707
          ],
          [
            2.165646,
            41.404808
          ],
          [
            2.16576,
            41.405544
          ],
          [
            2.16552,
            41.406512
          ],
          [
            2.165015,
            41.407343
          ],
          [
            2.164692,
            41.40769
          ],
          [
            2.16423,
            41.408153
          ],
          [
            2.162887,
            41.408135
          ],
          [
            2.161832,
            41.408034
          ],
          [
            2.161053,
            41.407343
          ],
          [
            2.160757,
            41.406537
          ],
          [
            2.160296,
            41.405544
          ],
          [
            2.160351,
            41.404434
          ],
          [
            2.161159,
            41.403746
          ],
          [
            2.159433,
            41.401958
          ],
          [
            2.158543,
            41.403078
          ],
          [
            2.158218,
            41.403746
          ],
          [
            2.158277,
            41.404677
          ],
          [
            2.157035,
            41.405154
          ],
          [
            2.156868,
            41.405419
          ],
          [
            2.156715,
            41.405544
          ],
          [
            2.155558,
            41.406236
          ],
          [
            2.154861,
            41.407343
          ],
          [
            2.154846,
            41.4075
          ],
          [
            2.154636,
            41.407857
          ],
          [
            2.154331,
            41.408913
          ],
          [
            2.153813,
            41.409141
          ],
          [
            2.152927,
            41.409659
          ],
          [
            2.152238,
            41.409834
          ],
          [
            2.150993,
            41.410007
          ],
          [
            2.149839,
            41.410164
          ],
          [
            2.148538,
            41.409964
          ],
          [
            2.148804,
            41.41094
          ],
          [
            2.149322,
            41.412351
          ],
          [
            2.149266,
            41.412739
          ],
          [
            2.14941,
            41.414215
          ],
          [
            2.147441,
            41.413674
          ],
          [
            2.146789,
            41.414048
          ],
          [
            2.145042,
            41.413634
          ],
          [
            2.143573,
            41.413436
          ],
          [
            2.142644,
            41.41346
          ],
          [
            2.141195,
            41.412739
          ],
          [
            2.141215,
            41.411667
          ],
          [
            2.141005,
            41.41094
          ],
          [
            2.141767,
            41.410283
          ],
          [
            2.142644,
            41.410197
          ],
          [
            2.143698,
            41.409932
          ],
          [
            2.144612,
            41.409141
          ],
          [
            2.142977,
            41.407593
          ],
          [
            2.145042,
            41.407416
          ],
          [
            2.145089,
            41.407378
          ],
          [
            2.145067,
            41.407343
          ],
          [
            2.145042,
            41.407289
          ],
          [
            2.144252,
            41.405544
          ],
          [
            2.144493,
            41.405132
          ],
          [
            2.145042,
            41.404356
          ],
          [
            2.145296,
            41.403936
          ],
          [
            2.147441,
            41.403888
          ],
          [
            2.147554,
            41.403831
          ],
          [
            2.147645,
            41.403746
          ],
          [
            2.147763,
            41.402188
          ],
          [
            2.147945,
            41.401947
          ],
          [
            2.148254,
            41.400759
          ],
          [
            2.148543,
            41.400148
          ],
          [
            2.147507,
            41.398399
          ],
          [
            2.149839,
            41.399323
          ],
          [
            2.150627,
            41.398941
          ],
          [
            2.15146,
            41.39835
          ],
          [
            2.151451,
            41.39776
          ],
          [
            2.15103,
            41.396551
          ],
          [
            2.149839,
            41.395404
          ],
          [
            2.147804,
            41.395025
          ],
          [
            2.147441,
            41.394892
          ],
          [
            2.146806,
            41.394752
          ],
          [
            2.145042,
            41.394361
          ],
          [
            2.142871,
            41.392954
          ],
          [
            2.142644,
            41.392797
          ],
          [
            2.141997,
            41.392469
          ],
          [
            2.140245,
            41.391583
          ],
          [
            2.138612,
            41.391729
          ],
          [
            2.137847,
            41.391669
          ],
          [
            2.135842,
            41.391451
          ],
          [
            2.135448,
            41.391798
          ],
          [
            2.134847,
            41.392503
          ],
          [
            2.134061,
            41.392954
          ],
          [
            2.134239,
            41.393846
          ],
          [
            2.13305,
            41.394099
          ],
          [
            2.132868,
            41.394616
          ],
          [
            2.132259,
            41.394752
          ],
          [
            2.131198,
            41.395162
          ],
          [
            2.130651,
            41.395214
          ],
          [
            2.128891,
            41.395231
          ],
          [
            2.128253,
            41.395208
          ],
          [
            2.126495,
            41.395233
          ],
          [
            2.126086,
            41.396551
          ],
          [
            2.127427,
            41.397731
          ],
          [
            2.125854,
            41.398113
          ],
          [
            2.12549,
            41.396551
          ],
          [
            2.124958,
            41.395879
          ],
          [
            2.124246,
            41.394752
          ],
          [
            2.123456,
            41.394184
          ],
          [
            2.122287,
            41.392954
          ],
          [
            2.121057,
            41.391752
          ],
          [
            2.119235,
            41.391588
          ],
          [
            2.118659,
            41.391325
          ],
          [
            2.116869,
            41.391612
          ],
          [
            2.11626,
            41.391974
          ],
          [
            2.115533,
            41.392408
          ],
          [
            2.113862,
            41.392387
          ],
          [
            2.113086,
            41.392372
          ],
          [
            2.111586,
            41.392954
          ],
          [
            2.111512,
            41.39299
          ],
          [
            2.111463,
            41.392991
          ],
          [
            2.111186,
            41.392954
          ],
          [
            2.109065,
            41.392597
          ],
          [
            2.108606,
            41.39261
          ],
          [
            2.106666,
            41.39224
          ],
          [
            2.104704,
            41.391483
          ],
          [
            2.104268,
            41.391346
          ],
          [
            2.102044,
            41.391155
          ],
          [
            2.103683,
            41.390717
          ],
          [
            2.102347,
            41.389356
          ],
          [
            2.102421,
            41.387971
          ],
          [
            2.102356,
            41.387558
          ],
          [
            2.101869,
            41.38678
          ],
          [
            2.100682,
            41.385759
          ],
          [
            2.099471,
            41.384309
          ],
          [
            2.098009,
            41.384663
          ],
          [
            2.097072,
            41.384527
          ],
          [
            2.095587,
            41.384645
          ],
          [
            2.094674,
            41.38479
          ],
          [
            2.093632,
            41.383961
          ],
          [
            2.092275,
            41.383355
          ],
          [
            2.09119,
            41.383147
          ],
          [
            2.089877,
            41.382575
          ],
          [
            2.088756,
            41.38312
          ],
          [
            2.087478,
            41.382394
          ],
          [
            2.086607,
            41.382162
          ],
          [
            2.08508,
            41.381823
          ],
          [
            2.084627,
            41.381823
          ],
          [
            2.082681,
            41.38191
          ],
          [
            2.082192,
            41.381795
          ],
          [
            2.080283,
            41.38187
          ],
          [
            2.079934,
            41.381901
          ],
          [
            2.077884,
            41.381295
          ],
          [
            2.076659,
            41.381243
          ],
          [
            2.075486,
            41.381833
          ],
          [
            2.073445,
            41.380363
          ],
          [
            2.073087,
            41.37893
          ],
          [
            2.073038,
            41.378565
          ],
          [
            2.072227,
            41.37792
          ],
          [
            2.073087,
            41.378505
          ],
          [
            2.074021,
            41.377466
          ],
          [
            2.075425,
            41.376766
          ],
          [
            2.075454,
            41.376742
          ],
          [
            2.075486,
            41.376707
          ],
          [
            2.0766,
            41.375803
          ],
          [
            2.076336,
            41.374967
          ],
          [
            2.075486,
            41.373707
          ],
          [
            2.074644,
            41.373169
          ],
          [
            2.073087,
            41.371387
          ],
          [
            2.073063,
            41.37137
          ],
          [
            2.070689,
            41.37043
          ],
          [
            2.069388,
            41.369571
          ],
          [
            2.06829,
            41.368441
          ],
          [
            2.06782,
            41.367773
          ],
          [
            2.065892,
            41.366846
          ],
          [
            2.064247,
            41.36654
          ],
          [
            2.063493,
            41.366551
          ],
          [
            2.061574,
            41.366334
          ],
          [
            2.061095,
            41.366338
          ],
          [
            2.0605,
            41.365974
          ],
          [
            2.060115,
            41.36524
          ],
          [
            2.059145,
            41.364175
          ],
          [
            2.059163,
            41.362727
          ],
          [
            2.05937,
            41.362377
          ],
          [
            2.058696,
            41.361054
          ],
          [
            2.058413,
            41.360578
          ],
          [
            2.058414,
            41.360367
          ],
          [
            2.057903,
            41.35878
          ],
          [
            2.057633,
            41.357982
          ],
          [
            2.056968,
            41.356981
          ],
          [
            2.057028,
            41.35573
          ],
          [
            2.057845,
            41.355182
          ],
          [
            2.056394,
            41.353456
          ],
          [
            2.056398,
            41.353384
          ],
          [
            2.057021,
            41.352127
          ],
          [
            2.057334,
            41.351585
          ],
          [
            2.058195,
            41.35121
          ],
          [
            2.058696,
            41.350898
          ],
          [
            2.06005,
            41.351585
          ],
          [
            2.061095,
            41.351628
          ],
          [
            2.061128,
            41.35161
          ],
          [
            2.061179,
            41.351585
          ],
          [
            2.061432,
            41.35004
          ],
          [
            2.063493,
            41.350367
          ],
          [
            2.063936,
            41.350119
          ],
          [
            2.065498,
            41.349786
          ],
          [
            2.065476,
            41.349475
          ],
          [
            2.065892,
            41.349411
          ],
          [
            2.066483,
            41.348431
          ],
          [
            2.067854,
            41.347988
          ],
          [
            2.066401,
            41.346571
          ],
          [
            2.06829,
            41.347535
          ],
          [
            2.070326,
            41.347988
          ],
          [
            2.070689,
            41.348006
          ],
          [
            2.070722,
            41.348013
          ],
          [
            2.070911,
            41.347988
          ],
          [
            2.072633,
            41.347647
          ],
          [
            2.073087,
            41.3477
          ],
          [
            2.074879,
            41.347533
          ],
          [
            2.075486,
            41.347067
          ],
          [
            2.075918,
            41.346513
          ],
          [
            2.076294,
            41.346189
          ],
          [
            2.076426,
            41.345095
          ],
          [
            2.077884,
            41.345202
          ],
          [
            2.078948,
            41.345188
          ],
          [
            2.080283,
            41.344814
          ],
          [
            2.080842,
            41.34481
          ],
          [
            2.081267,
            41.34439
          ],
          [
            2.082153,
            41.343994
          ],
          [
            2.082681,
            41.343097
          ],
          [
            2.083099,
            41.342906
          ],
          [
            2.08508,
            41.343092
          ],
          [
            2.085608,
            41.342988
          ],
          [
            2.086084,
            41.342592
          ],
          [
            2.086009,
            41.34149
          ],
          [
            2.086027,
            41.340793
          ],
          [
            2.086253,
            41.339874
          ],
          [
            2.087005,
            41.338995
          ],
          [
            2.08714,
            41.338741
          ],
          [
            2.087478,
            41.338478
          ],
          [
            2.088016,
            41.337599
          ],
          [
            2.088163,
            41.337196
          ],
          [
            2.08852,
            41.336179
          ],
          [
            2.089005,
            41.335397
          ],
          [
            2.089055,
            41.334781
          ],
          [
            2.089576,
            41.333599
          ],
          [
            2.087478,
            41.332898
          ],
          [
            2.087222,
            41.3318
          ],
          [
            2.086254,
            41.330882
          ],
          [
            2.086363,
            41.330001
          ],
          [
            2.086503,
            41.32927
          ],
          [
            2.087129,
            41.328203
          ],
          [
            2.087294,
            41.328065
          ],
          [
            2.087478,
            41.327867
          ],
          [
            2.088969,
            41.327522
          ],
          [
            2.089877,
            41.327812
          ],
          [
            2.090967,
            41.328203
          ],
          [
            2.092275,
            41.328688
          ],
          [
            2.093178,
            41.32888
          ],
          [
            2.093741,
            41.328203
          ],
          [
            2.094244,
            41.32788
          ],
          [
            2.094674,
            41.327752
          ],
          [
            2.095424,
            41.326967
          ],
          [
            2.096017,
            41.326404
          ],
          [
            2.095018,
            41.324864
          ],
          [
            2.097072,
            41.325626
          ],
          [
            2.097771,
            41.325129
          ],
          [
            2.099471,
            41.324849
          ],
          [
            2.099738,
            41.324806
          ],
          [
            2.100184,
            41.324605
          ],
          [
            2.100942,
            41.323911
          ],
          [
            2.101773,
            41.322807
          ],
          [
            2.101796,
            41.322752
          ],
          [
            2.101869,
            41.322608
          ],
          [
            2.102958,
            41.321825
          ],
          [
            2.104268,
            41.321224
          ],
          [
            2.105467,
            41.322807
          ],
          [
            2.106666,
            41.323979
          ],
          [
            2.10699,
            41.324605
          ],
          [
            2.107002,
            41.324857
          ],
          [
            2.106902,
            41.326404
          ],
          [
            2.107132,
            41.326754
          ],
          [
            2.108034,
            41.328203
          ],
          [
            2.109065,
            41.329486
          ],
          [
            2.109934,
            41.328855
          ],
          [
            2.110383,
            41.328203
          ],
          [
            2.110816,
            41.327717
          ],
          [
            2.111463,
            41.326739
          ],
          [
            2.11172,
            41.326596
          ],
          [
            2.112112,
            41.326404
          ],
          [
            2.111939,
            41.324962
          ],
          [
            2.113862,
            41.325183
          ],
          [
            2.114523,
            41.326404
          ],
          [
            2.114585,
            41.326947
          ],
          [
            2.115234,
            41.328203
          ],
          [
            2.11626,
            41.329155
          ],
          [
            2.117941,
            41.329463
          ],
          [
            2.118659,
            41.329588
          ],
          [
            2.1194,
            41.330001
          ],
          [
            2.119737,
            41.33081
          ],
          [
            2.118659,
            41.331081
          ],
          [
            2.118077,
            41.331364
          ],
          [
            2.118348,
            41.3318
          ],
          [
            2.118659,
            41.332358
          ],
          [
            2.119799,
            41.332655
          ],
          [
            2.121057,
            41.332925
          ],
          [
            2.121955,
            41.332474
          ],
          [
            2.12236,
            41.3318
          ],
          [
            2.122699,
            41.331232
          ],
          [
            2.123456,
            41.330926
          ],
          [
            2.125003,
            41.331162
          ],
          [
            2.125854,
            41.331432
          ],
          [
            2.126537,
            41.3318
          ],
          [
            2.126165,
            41.332033
          ],
          [
            2.125854,
            41.332297
          ],
          [
            2.124406,
            41.332513
          ],
          [
            2.124812,
            41.333599
          ],
          [
            2.125417,
            41.335069
          ],
          [
            2.123456,
            41.335199
          ],
          [
            2.123202,
            41.335207
          ],
          [
            2.121057,
            41.334097
          ],
          [
            2.119704,
            41.334383
          ],
          [
            2.120026,
            41.335397
          ],
          [
            2.12013,
            41.3365
          ],
          [
            2.118659,
            41.336254
          ],
          [
            2.117701,
            41.336478
          ],
          [
            2.117442,
            41.337196
          ],
          [
            2.118128,
            41.338597
          ],
          [
            2.117687,
            41.338995
          ],
          [
            2.11806,
            41.340345
          ],
          [
            2.11626,
            41.33943
          ],
          [
            2.11462,
            41.339563
          ],
          [
            2.116029,
            41.340793
          ],
          [
            2.114144,
            41.341005
          ],
          [
            2.114467,
            41.342592
          ],
          [
            2.11626,
            41.34364
          ],
          [
            2.117262,
            41.343343
          ],
          [
            2.118659,
            41.342721
          ],
          [
            2.118843,
            41.34273
          ],
          [
            2.121057,
            41.343268
          ],
          [
            2.122377,
            41.343582
          ],
          [
            2.123456,
            41.343081
          ],
          [
            2.123881,
            41.342911
          ],
          [
            2.123949,
            41.342592
          ],
          [
            2.123456,
            41.34225
          ],
          [
            2.122446,
            41.341835
          ],
          [
            2.121057,
            41.341325
          ],
          [
            2.119997,
            41.340793
          ],
          [
            2.118823,
            41.339118
          ],
          [
            2.118818,
            41.338995
          ],
          [
            2.119151,
            41.337565
          ],
          [
            2.121057,
            41.337729
          ],
          [
            2.121842,
            41.337784
          ],
          [
            2.122374,
            41.337196
          ],
          [
            2.121915,
            41.336041
          ],
          [
            2.123456,
            41.335827
          ],
          [
            2.125587,
            41.337196
          ],
          [
            2.125854,
            41.337388
          ],
          [
            2.126015,
            41.337316
          ],
          [
            2.128253,
            41.337422
          ],
          [
            2.128423,
            41.337324
          ],
          [
            2.130651,
            41.337945
          ],
          [
            2.131716,
            41.337994
          ],
          [
            2.13305,
            41.338077
          ],
          [
            2.135429,
            41.33898
          ],
          [
            2.13443,
            41.337196
          ],
          [
            2.13365,
            41.335847
          ],
          [
            2.134096,
            41.335397
          ],
          [
            2.1345,
            41.334686
          ],
          [
            2.134279,
            41.333599
          ],
          [
            2.134012,
            41.332522
          ],
          [
            2.133478,
            41.3318
          ],
          [
            2.13305,
            41.331315
          ],
          [
            2.130678,
            41.330001
          ],
          [
            2.131078,
            41.328523
          ],
          [
            2.131153,
            41.328203
          ],
          [
            2.131635,
            41.327142
          ],
          [
            2.131556,
            41.326404
          ],
          [
            2.130651,
            41.325613
          ],
          [
            2.128408,
            41.324605
          ],
          [
            2.129037,
            41.323395
          ],
          [
            2.128764,
            41.322807
          ],
          [
            2.12911,
            41.321651
          ],
          [
            2.129794,
            41.321008
          ],
          [
            2.129577,
            41.320202
          ],
          [
            2.130651,
            41.319926
          ],
          [
            2.131391,
            41.319765
          ],
          [
            2.13305,
            41.319687
          ],
          [
            2.134631,
            41.321008
          ],
          [
            2.135448,
            41.321738
          ],
          [
            2.136491,
            41.322807
          ],
          [
            2.137401,
            41.324271
          ],
          [
            2.137114,
            41.324605
          ],
          [
            2.137488,
            41.326135
          ],
          [
            2.137638,
            41.326404
          ],
          [
            2.137847,
            41.326569
          ],
          [
            2.138027,
            41.326539
          ],
          [
            2.138564,
            41.326404
          ],
          [
            2.139084,
            41.325534
          ],
          [
            2.140245,
            41.326167
          ],
          [
            2.140562,
            41.326404
          ],
          [
            2.141509,
            41.327352
          ],
          [
            2.142294,
            41.328203
          ],
          [
            2.141851,
            41.329407
          ],
          [
            2.142004,
            41.330001
          ],
          [
            2.142623,
            41.331784
          ],
          [
            2.142631,
            41.3318
          ],
          [
            2.142644,
            41.331826
          ],
          [
            2.143802,
            41.333599
          ],
          [
            2.144651,
            41.335104
          ],
          [
            2.14456,
            41.335397
          ],
          [
            2.143739,
            41.336218
          ],
          [
            2.143553,
            41.337196
          ],
          [
            2.144403,
            41.338515
          ],
          [
            2.144673,
            41.338995
          ],
          [
            2.145042,
            41.339571
          ],
          [
            2.145765,
            41.340793
          ],
          [
            2.147441,
            41.341969
          ],
          [
            2.1486,
            41.342592
          ],
          [
            2.149839,
            41.344296
          ],
          [
            2.149909,
            41.34439
          ],
          [
            2.151002,
            41.345262
          ],
          [
            2.152044,
            41.346189
          ],
          [
            2.152008,
            41.347815
          ],
          [
            2.151838,
            41.347988
          ],
          [
            2.151249,
            41.349045
          ],
          [
            2.149839,
            41.349049
          ],
          [
            2.14925,
            41.349345
          ],
          [
            2.149374,
            41.349786
          ],
          [
            2.149839,
            41.350408
          ],
          [
            2.151225,
            41.350826
          ],
          [
            2.152238,
            41.35083
          ],
          [
            2.15354,
            41.351585
          ],
          [
            2.153251,
            41.352345
          ],
          [
            2.153292,
            41.353384
          ],
          [
            2.153746,
            41.354515
          ],
          [
            2.152238,
            41.354886
          ],
          [
            2.151836,
            41.354881
          ],
          [
            2.151349,
            41.355182
          ],
          [
            2.150621,
            41.355769
          ],
          [
            2.150711,
            41.356981
          ],
          [
            2.152238,
            41.358369
          ],
          [
            2.153148,
            41.35878
          ],
          [
            2.153588,
            41.359792
          ],
          [
            2.154235,
            41.360578
          ],
          [
            2.154636,
            41.360792
          ],
          [
            2.155339,
            41.361105
          ],
          [
            2.157035,
            41.36184
          ],
          [
            2.158463,
            41.362377
          ],
          [
            2.159433,
            41.363481
          ],
          [
            2.159925,
            41.364175
          ],
          [
            2.161832,
            41.365281
          ],
          [
            2.163961,
            41.365772
          ],
          [
            2.16423,
            41.36583
          ],
          [
            2.164496,
            41.365974
          ],
          [
            2.165361,
            41.366822
          ],
          [
            2.166232,
            41.367773
          ],
          [
            2.166629,
            41.368086
          ],
          [
            2.16706,
            41.368096
          ],
          [
            2.169027,
            41.369095
          ],
          [
            2.170917,
            41.369571
          ],
          [
            2.171426,
            41.369696
          ],
          [
            2.171667,
            41.369752
          ],
          [
            2.173824,
            41.370041
          ],
          [
            2.174649,
            41.37019
          ],
          [
            2.176223,
            41.370429
          ],
          [
            2.177606,
            41.370609
          ],
          [
            2.178621,
            41.370671
          ],
          [
            2.180013,
            41.370615
          ],
          [
            2.18102,
            41.370569
          ],
          [
            2.182413,
            41.37137
          ],
          [
            2.18195,
            41.372068
          ],
          [
            2.182233,
            41.373169
          ],
          [
            2.183206,
            41.374808
          ],
          [
            2.183334,
            41.374967
          ],
          [
            2.182832,
            41.376327
          ],
          [
            2.182956,
            41.376766
          ],
          [
            2.183152,
            41.378365
          ],
          [
            2.183096,
            41.378565
          ],
          [
            2.183418,
            41.378927
          ],
          [
            2.184016,
            41.379013
          ],
          [
            2.185817,
            41.37957
          ],
          [
            2.187991,
            41.380195
          ],
          [
            2.188215,
            41.380024
          ],
          [
            2.188417,
            41.380363
          ],
          [
            2.188872,
            41.380856
          ],
          [
            2.190094,
            41.382162
          ],
          [
            2.189981,
            41.383486
          ],
          [
            2.189543,
            41.383961
          ],
          [
            2.189514,
            41.384934
          ],
          [
            2.189138,
            41.385759
          ],
          [
            2.190614,
            41.386684
          ],
          [
            2.191198,
            41.386197
          ],
          [
            2.19195,
            41.385759
          ],
          [
            2.19192,
            41.38494
          ],
          [
            2.193012,
            41.385457
          ],
          [
            2.194411,
            41.385759
          ],
          [
            2.195411,
            41.386264
          ],
          [
            2.196531,
            41.387558
          ],
          [
            2.196227,
            41.38817
          ],
          [
            2.195921,
            41.389356
          ],
          [
            2.197497,
            41.390921
          ],
          [
            2.195411,
            41.390012
          ],
          [
            2.194358,
            41.390366
          ],
          [
            2.194473,
            41.391155
          ],
          [
            2.195015,
            41.392657
          ],
          [
            2.195111,
            41.392954
          ],
          [
            2.195321,
            41.394686
          ],
          [
            2.19533,
            41.394752
          ],
          [
            2.195333,
            41.396493
          ],
          [
            2.195351,
            41.396551
          ],
          [
            2.195411,
            41.397002
          ],
          [
            2.195817,
            41.39835
          ],
          [
            2.195876,
            41.398699
          ],
          [
            2.195411,
            41.399688
          ],
          [
            2.195333,
            41.40009
          ],
          [
            2.195326,
            41.400148
          ],
          [
            2.195411,
            41.401292
          ],
          [
            2.195469,
            41.401947
          ],
          [
            2.195474,
            41.401994
          ],
          [
            2.19602,
            41.403746
          ],
          [
            2.196962,
            41.404909
          ],
          [
            2.197359,
            41.405544
          ],
          [
            2.196562,
            41.406408
          ],
          [
            2.195411,
            41.406528
          ],
          [
            2.194781,
            41.406871
          ],
          [
            2.194178,
            41.407343
          ],
          [
            2.193851,
            41.407972
          ],
          [
            2.1933,
            41.409141
          ],
          [
            2.193297,
            41.409355
          ],
          [
            2.193663,
            41.41094
          ],
          [
            2.1939,
            41.411606
          ],
          [
            2.194075,
            41.412739
          ],
          [
            2.195411,
            41.414254
          ],
          [
            2.196068,
            41.414537
          ],
          [
            2.196317,
            41.415217
          ],
          [
            2.195411,
            41.415604
          ],
          [
            2.193748,
            41.415089
          ],
          [
            2.193012,
            41.414664
          ],
          [
            2.192236,
            41.415754
          ],
          [
            2.192122,
            41.416336
          ],
          [
            2.191803,
            41.417228
          ],
          [
            2.191749,
            41.418135
          ],
          [
            2.191952,
            41.419138
          ],
          [
            2.191948,
            41.419933
          ],
          [
            2.1926,
            41.421423
          ],
          [
            2.19263,
            41.421732
          ],
          [
            2.1925,
            41.423146
          ],
          [
            2.192226,
            41.423531
          ],
          [
            2.191331,
            41.424069
          ],
          [
            2.190614,
            41.424768
          ],
          [
            2.190396,
            41.425166
          ],
          [
            2.189774,
            41.425329
          ],
          [
            2.189041,
            41.425949
          ],
          [
            2.188215,
            41.426268
          ],
          [
            2.187209,
            41.426373
          ],
          [
            2.186302,
            41.427128
          ],
          [
            2.186169,
            41.427392
          ],
          [
            2.187019,
            41.428927
          ],
          [
            2.186897,
            41.429737
          ],
          [
            2.18684,
            41.430725
          ],
          [
            2.186536,
            41.431265
          ],
          [
            2.186076,
            41.432524
          ],
          [
            2.186035,
            41.432688
          ],
          [
            2.185817,
            41.4328
          ],
          [
            2.184987,
            41.4337
          ],
          [
            2.183602,
            41.434322
          ],
          [
            2.185623,
            41.435976
          ],
          [
            2.183418,
            41.43442
          ],
          [
            2.183288,
            41.434322
          ],
          [
            2.18102,
            41.433181
          ],
          [
            2.178702,
            41.432524
          ],
          [
            2.18023,
            41.431932
          ],
          [
            2.180163,
            41.430725
          ],
          [
            2.180109,
            41.430042
          ],
          [
            2.180863,
            41.428927
          ],
          [
            2.180899,
            41.428836
          ],
          [
            2.18102,
            41.428766
          ],
          [
            2.182192,
            41.428007
          ],
          [
            2.183418,
            41.42732
          ],
          [
            2.183807,
            41.42742
          ],
          [
            2.184691,
            41.427128
          ],
          [
            2.184954,
            41.426481
          ],
          [
            2.184008,
            41.425329
          ],
          [
            2.183418,
            41.424653
          ],
          [
            2.181534,
            41.423531
          ],
          [
            2.182575,
            41.422898
          ],
          [
            2.182385,
            41.421732
          ],
          [
            2.182842,
            41.4213
          ],
          [
            2.182801,
            41.419933
          ],
          [
            2.18102,
            41.418311
          ],
          [
            2.180312,
            41.418135
          ]
        ],
        [
          [
            2.092262,
            41.333589
          ],
          [
            2.09202,
            41.333599
          ],
          [
            2.092275,
            41.333748
          ],
          [
            2.09229,
            41.33361
          ],
          [
            2.092326,
            41.333599
          ],
          [
            2.092275,
            41.333569
          ],
          [
            2.092262,
            41.333589
          ]
        ],
        [
          [
            2.091343,
            41.343692
          ],
          [
            2.090211,
            41.34439
          ],
          [
            2.092275,
            41.345607
          ],
          [
            2.09324,
            41.345114
          ],
          [
            2.094595,
            41.34439
          ],
          [
            2.092275,
            41.34358
          ],
          [
            2.091343,
            41.343692
          ]
        ],
        [
          [
            2.103686,
            41.33676
          ],
          [
            2.103284,
            41.337196
          ],
          [
            2.102737,
            41.337847
          ],
          [
            2.102765,
            41.338995
          ],
          [
            2.102908,
            41.339774
          ],
          [
            2.103338,
            41.340793
          ],
          [
            2.104268,
            41.341577
          ],
          [
            2.105076,
            41.341399
          ],
          [
            2.105812,
            41.340793
          ],
          [
            2.105943,
            41.340251
          ],
          [
            2.106666,
            41.339033
          ],
          [
            2.10906,
            41.340793
          ],
          [
            2.109065,
            41.340794
          ],
          [
            2.109066,
            41.340794
          ],
          [
            2.109066,
            41.340793
          ],
          [
            2.109076,
            41.339003
          ],
          [
            2.111463,
            41.339069
          ],
          [
            2.112236,
            41.339574
          ],
          [
            2.111745,
            41.338995
          ],
          [
            2.111463,
            41.338922
          ],
          [
            2.111362,
            41.338919
          ],
          [
            2.109065,
            41.33895
          ],
          [
            2.106967,
            41.337196
          ],
          [
            2.106666,
            41.336509
          ],
          [
            2.106402,
            41.336998
          ],
          [
            2.104268,
            41.336729
          ],
          [
            2.103686,
            41.33676
          ]
        ]
      ],
      [
        [
          [
            2.065803,
            41.303022
          ],
          [
            2.063493,
            41.302189
          ],
          [
            2.062383,
            41.302189
          ],
          [
            2.061095,
            41.302471
          ],
          [
            2.05953,
            41.301848
          ],
          [
            2.058696,
            41.302002
          ],
          [
            2.057473,
            41.302104
          ],
          [
            2.056298,
            41.302632
          ],
          [
            2.055582,
            41.302485
          ],
          [
            2.053899,
            41.302695
          ],
          [
            2.05248,
            41.301223
          ],
          [
            2.051941,
            41.299755
          ],
          [
            2.051692,
            41.299424
          ],
          [
            2.052062,
            41.298047
          ],
          [
            2.053275,
            41.297626
          ],
          [
            2.051977,
            41.296184
          ],
          [
            2.053899,
            41.297444
          ],
          [
            2.055292,
            41.297626
          ],
          [
            2.056298,
            41.29784
          ],
          [
            2.056466,
            41.297752
          ],
          [
            2.056496,
            41.297626
          ],
          [
            2.057302,
            41.29658
          ],
          [
            2.058324,
            41.295827
          ],
          [
            2.057404,
            41.294858
          ],
          [
            2.058696,
            41.294246
          ],
          [
            2.059013,
            41.294266
          ],
          [
            2.061095,
            41.294072
          ],
          [
            2.061205,
            41.294112
          ],
          [
            2.063493,
            41.294632
          ],
          [
            2.064234,
            41.294584
          ],
          [
            2.065892,
            41.29519
          ],
          [
            2.06795,
            41.295827
          ],
          [
            2.06829,
            41.29601
          ],
          [
            2.069361,
            41.297626
          ],
          [
            2.070355,
            41.299174
          ],
          [
            2.06829,
            41.299364
          ],
          [
            2.06816,
            41.299327
          ],
          [
            2.068067,
            41.299424
          ],
          [
            2.06829,
            41.299471
          ],
          [
            2.068362,
            41.299479
          ],
          [
            2.070689,
            41.29965
          ],
          [
            2.070962,
            41.299629
          ],
          [
            2.073087,
            41.299666
          ],
          [
            2.073581,
            41.299795
          ],
          [
            2.075486,
            41.300526
          ],
          [
            2.077793,
            41.301223
          ],
          [
            2.077884,
            41.30126
          ],
          [
            2.077958,
            41.301278
          ],
          [
            2.080283,
            41.302133
          ],
          [
            2.081733,
            41.302311
          ],
          [
            2.082681,
            41.302443
          ],
          [
            2.083732,
            41.303022
          ],
          [
            2.084595,
            41.304457
          ],
          [
            2.08478,
            41.30482
          ],
          [
            2.084831,
            41.306433
          ],
          [
            2.084683,
            41.306619
          ],
          [
            2.084553,
            41.308023
          ],
          [
            2.082963,
            41.308418
          ],
          [
            2.08413,
            41.309504
          ],
          [
            2.082681,
            41.308488
          ],
          [
            2.081127,
            41.308418
          ],
          [
            2.080283,
            41.308384
          ],
          [
            2.080241,
            41.308386
          ],
          [
            2.080205,
            41.308418
          ],
          [
            2.079761,
            41.309825
          ],
          [
            2.077884,
            41.309673
          ],
          [
            2.07654,
            41.309208
          ],
          [
            2.075486,
            41.308965
          ],
          [
            2.074393,
            41.308418
          ],
          [
            2.073087,
            41.307918
          ],
          [
            2.072934,
            41.306619
          ],
          [
            2.070689,
            41.305518
          ],
          [
            2.068777,
            41.30482
          ],
          [
            2.06829,
            41.304777
          ],
          [
            2.068231,
            41.304776
          ],
          [
            2.065892,
            41.3032
          ],
          [
            2.065803,
            41.303022
          ]
        ]
      ],
      [
        [
          [
            2.161877,
            41.410974
          ],
          [
            2.16423,
            41.411797
          ],
          [
            2.164852,
            41.411406
          ],
          [
            2.165829,
            41.41094
          ],
          [
            2.166304,
            41.410696
          ],
          [
            2.166629,
            41.410862
          ],
          [
            2.166974,
            41.41094
          ],
          [
            2.167,
            41.411219
          ],
          [
            2.167856,
            41.412739
          ],
          [
            2.167241,
            41.413198
          ],
          [
            2.166629,
            41.413416
          ],
          [
            2.164681,
            41.413077
          ],
          [
            2.16423,
            41.41303
          ],
          [
            2.163647,
            41.412739
          ],
          [
            2.161877,
            41.410974
          ]
        ]
      ],
      [
        [
          [
            2.091288,
            41.320268
          ],
          [
            2.092275,
            41.32005
          ],
          [
            2.094433,
            41.320828
          ],
          [
            2.094674,
            41.320731
          ],
          [
            2.094903,
            41.321008
          ],
          [
            2.095331,
            41.321501
          ],
          [
            2.096427,
            41.322807
          ],
          [
            2.095682,
            41.323563
          ],
          [
            2.094674,
            41.324336
          ],
          [
            2.094527,
            41.324496
          ],
          [
            2.092275,
            41.324573
          ],
          [
            2.090386,
            41.322807
          ],
          [
            2.090393,
            41.321395
          ],
          [
            2.090701,
            41.321008
          ],
          [
            2.091288,
            41.320268
          ]
        ]
      ],
      [
        [
          [
            2.139681,
            41.418135
          ],
          [
            2.139831,
            41.417824
          ],
          [
            2.140245,
            41.417249
          ],
          [
            2.14145,
            41.417239
          ],
          [
            2.142644,
            41.41713
          ],
          [
            2.144414,
            41.418135
          ],
          [
            2.143925,
            41.419095
          ],
          [
            2.142644,
            41.419908
          ],
          [
            2.14261,
            41.419908
          ],
          [
            2.140245,
            41.419043
          ],
          [
            2.139681,
            41.418135
          ]
        ]
      ],
      [
        [
          [
            2.188459,
            41.439901
          ],
          [
            2.190614,
            41.441482
          ],
          [
            2.190657,
            41.441517
          ],
          [
            2.190657,
            41.44155
          ],
          [
            2.190614,
            41.441594
          ],
          [
            2.190578,
            41.441517
          ],
          [
            2.188459,
            41.439901
          ]
        ]
      ],
      [
        [
          [
            2.087369,
            41.317329
          ],
          [
            2.087478,
            41.317042
          ],
          [
            2.088167,
            41.317411
          ],
          [
            2.087565,
            41.317476
          ],
          [
            2.087478,
            41.317511
          ],
          [
            2.087161,
            41.317411
          ],
          [
            2.087369,
            41.317329
          ]
        ]
      ],
      [
        [
          [
            2.089512,
            41.315339
          ],
          [
            2.089877,
            41.31528
          ],
          [
            2.090601,
            41.315612
          ],
          [
            2.090292,
            41.315924
          ],
          [
            2.089877,
            41.316898
          ],
          [
            2.0884,
            41.315612
          ],
          [
            2.089512,
            41.315339
          ]
        ]
      ],
      [
        [
          [
            2.073003,
            41.382099
          ],
          [
            2.073087,
            41.381563
          ],
          [
            2.073762,
            41.382162
          ],
          [
            2.073203,
            41.382249
          ],
          [
            2.073087,
            41.382329
          ],
          [
            2.072979,
            41.382162
          ],
          [
            2.073003,
            41.382099
          ]
        ]
      ]
    ]
  },
  "properties": {
    "location": "casa",
    "minutes": 45,
    "mode": "transit"
  }
}
