{
  "type": "Feature",
  "geometry": {
    "type": "MultiPolygon",
    "coordinates": [
      [
        [
          [
            2.099471,
            41.366984
          ],
          [
            2.097861,
            41.366566
          ],
          [
            2.097072,
            41.36645
          ],
          [
            2.096271,
            41.365974
          ],
          [
            2.094674,
            41.364792
          ],
          [
            2.094067,
            41.364175
          ],
          [
            2.093792,
            41.363514
          ],
          [
            2.093242,
            41.362377
          ],
          [
            2.092753,
            41.360937
          ],
          [
            2.092731,
            41.360578
          ],
          [
            2.093445,
            41.359657
          ],
          [
            2.09366,
            41.35878
          ],
          [
            2.093935,
            41.358226
          ],
          [
            2.094674,
            41.35768
          ],
          [
            2.09522,
            41.357391
          ],
          [
            2.095547,
            41.356981
          ],
          [
            2.096392,
            41.356471
          ],
          [
            2.097072,
            41.355595
          ],
          [
            2.09739,
            41.355421
          ],
          [
            2.098259,
            41.355182
          ],
          [
            2.099242,
            41.355011
          ],
          [
            2.099471,
            41.354957
          ],
          [
            2.10149,
            41.354898
          ],
          [
            2.101869,
            41.354828
          ],
          [
            2.103705,
            41.35476
          ],
          [
            2.104268,
            41.354573
          ],
          [
            2.105371,
            41.355182
          ],
          [
            2.106666,
            41.356714
          ],
          [
            2.106797,
            41.356981
          ],
          [
            2.109065,
            41.35862
          ],
          [
            2.109192,
            41.35878
          ],
          [
            2.109365,
            41.359005
          ],
          [
            2.110271,
            41.360578
          ],
          [
            2.110285,
            41.361494
          ],
          [
            2.110358,
            41.362377
          ],
          [
            2.110218,
            41.363242
          ],
          [
            2.109786,
            41.364175
          ],
          [
            2.109668,
            41.364628
          ],
          [
            2.109065,
            41.364917
          ],
          [
            2.108265,
            41.365375
          ],
          [
            2.106666,
            41.365527
          ],
          [
            2.106221,
            41.36564
          ],
          [
            2.105614,
            41.365974
          ],
          [
            2.105275,
            41.36673
          ],
          [
            2.104898,
            41.367773
          ],
          [
            2.104767,
            41.368147
          ],
          [
            2.104268,
            41.368593
          ],
          [
            2.102114,
            41.367957
          ],
          [
            2.101869,
            41.367868
          ],
          [
            2.101745,
            41.367773
          ],
          [
            2.099471,
            41.366984
          ]
        ]
      ],
      [
        [
          [
            2.109006,
            41.351541
          ],
          [
            2.109065,
            41.351219
          ],
          [
            2.109791,
            41.350331
          ],
          [
            2.109782,
            41.349786
          ],
          [
            2.110924,
            41.349382
          ],
          [
            2.111463,
            41.349222
          ],
          [
            2.112075,
            41.349786
          ],
          [
            2.112349,
            41.350451
          ],
          [
            2.11234,
            41.351585
          ],
          [
            2.112014,
            41.351998
          ],
          [
            2.111463,
            41.352144
          ],
          [
            2.109179,
            41.351671
          ],
          [
            2.109065,
            41.351687
          ],
          [
            2.108986,
            41.351585
          ],
          [
            2.109006,
            41.351541
          ]
        ]
      ]
    ]
  },
  "properties": {
    "location": "casa",
    "minutes": 15,
    "mode": "transit"
  }
}
