{
  "type": "Feature",
  "geometry": {
    "type": "Polygon",
    "coordinates": [
      [
        [
          2.130000,
          41.376505
        ],
        [
          2.121000,
          41.373593
        ],
        [
          2.116344,
          41.364500
        ],
        [
          2.119057,
          41.362557
        ],
        [
          2.121000,
          41.359295
        ],
        [
          2.128000,
          41.356992
        ],
        [
          2.131000,
          41.357187
        ],
        [
          2.133000,
          41.358156
        ],
        [
          2.134000,
          41.357266
        ],
        [
          2.138064,
          41.358436
        ],
        [
          2.142000,
          41.366474
        ],
        [
          2.141213,
          41.367500
        ],
        [
          2.141504,
          41.372004
        ],
        [
          2.138255,
          41.373500
        ],
        [
          2.138000,
          41.374515
        ],
        [
          2.136000,
          41.375589
        ],
        [
          2.130000,
          41.376505
        ]
      ]
    ]
  },
  "properties": {
    "location": "feina",
    "minutes": 15,
    "mode": "walk"
  }
}
