{
  "type": "Feature",
  "geometry": {
    "type": "MultiPolygon",
    "coordinates": [
      [
        [
          [
            2.122399,
            41.360578
          ],
          [
            2.122985,
            41.360226
          ],
          [
            2.123456,
            41.359932
          ],
          [
            2.125796,
            41.360578
          ],
          [
            2.125854,
            41.360591
          ],
          [
            2.125869,
            41.360589
          ],
          [
            2.125937,
            41.360578
          ],
          [
            2.127708,
            41.36017
          ],
          [
            2.128253,
            41.360073
          ],
          [
            2.129879,
            41.359999
          ],
          [
            2.130651,
            41.360071
          ],
          [
            2.132896,
            41.360463
          ],
          [
            2.13305,
            41.360505
          ],
          [
            2.133205,
            41.360578
          ],
          [
            2.135448,
            41.362218
          ],
          [
            2.135586,
            41.362377
          ],
          [
            2.135696,
            41.362563
          ],
          [
            2.136578,
            41.364175
          ],
          [
            2.136936,
            41.365292
          ],
          [
            2.137049,
            41.365974
          ],
          [
            2.136742,
            41.366945
          ],
          [
            2.136941,
            41.367773
          ],
          [
            2.136938,
            41.36889
          ],
          [
            2.136654,
            41.369571
          ],
          [
            2.136373,
            41.370265
          ],
          [
            2.135448,
            41.370984
          ],
          [
            2.135219,
            41.371198
          ],
          [
            2.134784,
            41.37137
          ],
          [
            2.133882,
            41.371994
          ],
          [
            2.13305,
            41.372885
          ],
          [
            2.132785,
            41.37297
          ],
          [
            2.131847,
            41.373169
          ],
          [
            2.130777,
            41.373263
          ],
          [
            2.130651,
            41.373274
          ],
          [
            2.130336,
            41.373169
          ],
          [
            2.128253,
            41.372019
          ],
          [
            2.12743,
            41.37137
          ],
          [
            2.125854,
            41.370515
          ],
          [
            2.124136,
            41.369571
          ],
          [
            2.123456,
            41.36909
          ],
          [
            2.12211,
            41.367773
          ],
          [
            2.12144,
            41.366261
          ],
          [
            2.121308,
            41.365974
          ],
          [
            2.121568,
            41.364559
          ],
          [
            2.121778,
            41.364175
          ],
          [
            2.122162,
            41.363206
          ],
          [
            2.122482,
            41.362377
          ],
          [
            2.122321,
            41.361526
          ],
          [
            2.122399,
            41.360578
          ]
        ]
      ]
    ]
  },
  "properties": {
    "location": "feina",
    "minutes": 15,
    "mode": "transit"
  }
}
