{
  "type": "Feature",
  "geometry": {
    "type": "Polygon",
    "coordinates": [
      [
        [
          2.130000,
          41.386572
        ],
        [
          2.129000,
          41.386354
        ],
        [
          2.127000,
          41.387374
        ],
        [
          2.124000,
          41.384594
        ],
        [
          2.122187,
          41.384500
        ],
        [
          2.122000,
          41.383103
        ],
        [
          2.119000,
          41.383838
        ],
        [
          2.114429,
          41.381500
        ],
        [
          2.112656,
          41.378844
        ],
        [
          2.108009,
          41.376500
        ],
        [
          2.107791,
          41.373709
        ],
        [
          2.105547,
          41.370500
        ],
        [
          2.106193,
          41.367307
        ],
        [
          2.104745,
          41.366755
        ],
        [
          2.102864,
          41.363500
        ],
        [
          2.104376,
          41.362500
        ],
        [
          2.103000,
          41.362031
        ],
        [
          2.102701,
          41.360500
        ],
        [
          2.104567,
          41.358067
        ],
        [
          2.106487,
          41.357987
        ],
        [
          2.108768,
          41.354268
        ],
        [
          2.112777,
          41.353277
        ],
        [
          2.116000,
          41.349564
        ],
        [
          2.119278,
          41.348778
        ],
        [
          2.127999,
          41.348501
        ],
        [
          2.128831,
          41.349669
        ],
        [
          2.130000,
          41.349655
        ],
        [
          2.131000,
          41.348404
        ],
        [
          2.134000,
          41.348845
        ],
        [
          2.135000,
          41.349704
        ],
        [
          2.137000,
          41.348054
        ],
        [
          2.139000,
          41.347996
        ],
        [
          2.144000,
          41.350107
        ],
        [
          2.146000,
          41.349721
        ],
        [
          2.147612,
          41.352888
        ],
        [
          2.149873,
          41.353500
        ],
        [
          2.150031,
          41.354500
        ],
        [
          2.148382,
          41.354882
        ],
        [
          2.148210,
          41.356290
        ],
        [
          2.150258,
          41.357243
        ],
        [
          2.149850,
          41.358650
        ],
        [
          2.152247,
          41.359253
        ],
        [
          2.153844,
          41.361500
        ],
        [
          2.153192,
          41.362500
        ],
        [
          2.151736,
          41.362500
        ],
        [
          2.153002,
          41.364500
        ],
        [
          2.151425,
          41.367500
        ],
        [
          2.153582,
          41.371500
        ],
        [
          2.153526,
          41.373500
        ],
        [
          2.155445,
          41.374500
        ],
        [
          2.155365,
          41.375500
        ],
        [
          2.153070,
          41.378500
        ],
        [
          2.151874,
          41.378374
        ],
        [
          2.147778,
          41.380278
        ],
        [
          2.146734,
          41.382234
        ],
        [
          2.145375,
          41.382875
        ],
        [
          2.142000,
          41.384058
        ],
        [
          2.137000,
          41.384076
        ],
        [
          2.132507,
          41.386007
        ],
        [
          2.130000,
          41.386572
        ]
      ]
    ]
  },
  "properties": {
    "location": "feina",
    "minutes": 30,
    "mode": "walk"
  }
}
