{
  "type": "Feature",
  "geometry": {
    "type": "MultiPolygon",
    "coordinates": [
      [
        [
          [
            2.137847,
            41.408708
          ],
          [
            2.13612,
            41.407846
          ],
          [
            2.135448,
            41.407564
          ],
          [
            2.133466,
            41.407655
          ],
          [
            2.13305,
            41.409042
          ],
          [
            2.132524,
            41.407343
          ],
          [
            2.130651,
            41.406576
          ],
          [
            2.128555,
            41.405771
          ],
          [
            2.128253,
            41.405661
          ],
          [
            2.127574,
            41.405544
          ],
          [
            2.125854,
            41.40476
          ],
          [
            2.124919,
            41.403746
          ],
          [
            2.123456,
            41.402797
          ],
          [
            2.122559,
            41.403073
          ],
          [
            2.121057,
            41.402869
          ],
          [
            2.118974,
            41.401947
          ],
          [
            2.118659,
            41.401851
          ],
          [
            2.11854,
            41.401858
          ],
          [
            2.118318,
            41.401947
          ],
          [
            2.117565,
            41.402926
          ],
          [
            2.117007,
            41.403746
          ],
          [
            2.11667,
            41.404053
          ],
          [
            2.11626,
            41.404107
          ],
          [
            2.114535,
            41.404251
          ],
          [
            2.113862,
            41.404483
          ],
          [
            2.112341,
            41.403746
          ],
          [
            2.111463,
            41.403138
          ],
          [
            2.109681,
            41.401947
          ],
          [
            2.109065,
            41.400926
          ],
          [
            2.107933,
            41.401099
          ],
          [
            2.106666,
            41.40039
          ],
          [
            2.106169,
            41.400148
          ],
          [
            2.106103,
            41.399726
          ],
          [
            2.105124,
            41.39835
          ],
          [
            2.104268,
            41.397581
          ],
          [
            2.102693,
            41.396551
          ],
          [
            2.102796,
            41.395447
          ],
          [
            2.102589,
            41.394752
          ],
          [
            2.102601,
            41.393503
          ],
          [
            2.102775,
            41.392954
          ],
          [
            2.102281,
            41.391464
          ],
          [
            2.102153,
            41.391155
          ],
          [
            2.101869,
            41.389817
          ],
          [
            2.100676,
            41.389356
          ],
          [
            2.101062,
            41.388751
          ],
          [
            2.100658,
            41.387558
          ],
          [
            2.099471,
            41.387119
          ],
          [
            2.098321,
            41.385759
          ],
          [
            2.097072,
            41.384598
          ],
          [
            2.095348,
            41.383961
          ],
          [
            2.094674,
            41.382944
          ],
          [
            2.094353,
            41.38372
          ],
          [
            2.092275,
            41.382299
          ],
          [
            2.090844,
            41.382162
          ],
          [
            2.089877,
            41.381507
          ],
          [
            2.088272,
            41.380959
          ],
          [
            2.087478,
            41.380715
          ],
          [
            2.085641,
            41.380784
          ],
          [
            2.08508,
            41.380768
          ],
          [
            2.083987,
            41.381343
          ],
          [
            2.082681,
            41.382113
          ],
          [
            2.082577,
            41.382084
          ],
          [
            2.080283,
            41.38187
          ],
          [
            2.079934,
            41.381901
          ],
          [
            2.077884,
            41.381295
          ],
          [
            2.076659,
            41.381243
          ],
          [
            2.075486,
            41.381833
          ],
          [
            2.073445,
            41.380363
          ],
          [
            2.073087,
            41.37893
          ],
          [
            2.073038,
            41.378565
          ],
          [
            2.072227,
            41.37792
          ],
          [
            2.073087,
            41.378505
          ],
          [
            2.074021,
            41.377466
          ],
          [
            2.075486,
            41.376892
          ],
          [
            2.075609,
            41.376859
          ],
          [
            2.075863,
            41.376766
          ],
          [
            2.075501,
            41.374979
          ],
          [
            2.077884,
            41.375825
          ],
          [
            2.078447,
            41.37539
          ],
          [
            2.080283,
            41.375233
          ],
          [
            2.080591,
            41.375199
          ],
          [
            2.082681,
            41.37516
          ],
          [
            2.082997,
            41.375204
          ],
          [
            2.08323,
            41.374967
          ],
          [
            2.082681,
            41.373307
          ],
          [
            2.082648,
            41.373169
          ],
          [
            2.082604,
            41.373111
          ],
          [
            2.081593,
            41.37137
          ],
          [
            2.080788,
            41.36995
          ],
          [
            2.08074,
            41.369571
          ],
          [
            2.080283,
            41.369305
          ],
          [
            2.078341,
            41.367773
          ],
          [
            2.077884,
            41.367085
          ],
          [
            2.077042,
            41.365974
          ],
          [
            2.075486,
            41.364783
          ],
          [
            2.073312,
            41.364175
          ],
          [
            2.07468,
            41.363572
          ],
          [
            2.075486,
            41.363485
          ],
          [
            2.076427,
            41.363083
          ],
          [
            2.076349,
            41.362377
          ],
          [
            2.075486,
            41.361649
          ],
          [
            2.074404,
            41.361566
          ],
          [
            2.073087,
            41.361472
          ],
          [
            2.072101,
            41.361638
          ],
          [
            2.070689,
            41.361405
          ],
          [
            2.06906,
            41.361155
          ],
          [
            2.06829,
            41.36116
          ],
          [
            2.065979,
            41.360644
          ],
          [
            2.065892,
            41.360628
          ],
          [
            2.065841,
            41.360578
          ],
          [
            2.065818,
            41.360523
          ],
          [
            2.065395,
            41.35878
          ],
          [
            2.065232,
            41.358285
          ],
          [
            2.064631,
            41.356981
          ],
          [
            2.06406,
            41.355607
          ],
          [
            2.064205,
            41.355182
          ],
          [
            2.063748,
            41.353575
          ],
          [
            2.065892,
            41.354481
          ],
          [
            2.066759,
            41.354034
          ],
          [
            2.06829,
            41.353603
          ],
          [
            2.068528,
            41.353562
          ],
          [
            2.070689,
            41.35357
          ],
          [
            2.071089,
            41.353684
          ],
          [
            2.073087,
            41.353943
          ],
          [
            2.074101,
            41.354144
          ],
          [
            2.075486,
            41.354166
          ],
          [
            2.075997,
            41.353767
          ],
          [
            2.077884,
            41.353639
          ],
          [
            2.078558,
            41.353889
          ],
          [
            2.080283,
            41.354225
          ],
          [
            2.081775,
            41.354503
          ],
          [
            2.082681,
            41.353945
          ],
          [
            2.082973,
            41.353602
          ],
          [
            2.083058,
            41.353384
          ],
          [
            2.083481,
            41.352185
          ],
          [
            2.083805,
            41.351585
          ],
          [
            2.08405,
            41.350813
          ],
          [
            2.08508,
            41.350407
          ],
          [
            2.085448,
            41.350063
          ],
          [
            2.085494,
            41.349786
          ],
          [
            2.085587,
            41.348368
          ],
          [
            2.087478,
            41.34818
          ],
          [
            2.087704,
            41.348157
          ],
          [
            2.089433,
            41.347988
          ],
          [
            2.087921,
            41.346521
          ],
          [
            2.089877,
            41.347828
          ],
          [
            2.090831,
            41.346905
          ],
          [
            2.092275,
            41.347034
          ],
          [
            2.092767,
            41.346558
          ],
          [
            2.092955,
            41.346189
          ],
          [
            2.093271,
            41.345137
          ],
          [
            2.094599,
            41.34439
          ],
          [
            2.093001,
            41.343136
          ],
          [
            2.094674,
            41.342594
          ],
          [
            2.094675,
            41.342593
          ],
          [
            2.094675,
            41.342592
          ],
          [
            2.094674,
            41.342583
          ],
          [
            2.093224,
            41.340793
          ],
          [
            2.093824,
            41.340156
          ],
          [
            2.094674,
            41.339189
          ],
          [
            2.094752,
            41.339054
          ],
          [
            2.094767,
            41.338995
          ],
          [
            2.094674,
            41.338773
          ],
          [
            2.094007,
            41.337196
          ],
          [
            2.092275,
            41.335902
          ],
          [
            2.090085,
            41.335554
          ],
          [
            2.089877,
            41.33561
          ],
          [
            2.089594,
            41.335397
          ],
          [
            2.087478,
            41.333655
          ],
          [
            2.087425,
            41.333599
          ],
          [
            2.08508,
            41.331847
          ],
          [
            2.084452,
            41.3318
          ],
          [
            2.082681,
            41.331
          ],
          [
            2.082169,
            41.330001
          ],
          [
            2.082049,
            41.329527
          ],
          [
            2.082365,
            41.328203
          ],
          [
            2.08132,
            41.327182
          ],
          [
            2.08066,
            41.326404
          ],
          [
            2.080379,
            41.324678
          ],
          [
            2.082681,
            41.325542
          ],
          [
            2.08319,
            41.324987
          ],
          [
            2.083774,
            41.324605
          ],
          [
            2.082681,
            41.322824
          ],
          [
            2.081091,
            41.322807
          ],
          [
            2.082668,
            41.322797
          ],
          [
            2.082235,
            41.321008
          ],
          [
            2.080345,
            41.319256
          ],
          [
            2.080363,
            41.319209
          ],
          [
            2.080283,
            41.319163
          ],
          [
            2.079765,
            41.317411
          ],
          [
            2.079467,
            41.316799
          ],
          [
            2.079451,
            41.315612
          ],
          [
            2.077884,
            41.314916
          ],
          [
            2.07701,
            41.314957
          ],
          [
            2.075486,
            41.315579
          ],
          [
            2.075458,
            41.315591
          ],
          [
            2.075405,
            41.315612
          ],
          [
            2.073841,
            41.316177
          ],
          [
            2.073087,
            41.316312
          ],
          [
            2.071076,
            41.315903
          ],
          [
            2.070689,
            41.315876
          ],
          [
            2.070191,
            41.315612
          ],
          [
            2.06829,
            41.313938
          ],
          [
            2.066767,
            41.313814
          ],
          [
            2.068063,
            41.313644
          ],
          [
            2.067421,
            41.312015
          ],
          [
            2.067627,
            41.311518
          ],
          [
            2.067767,
            41.310216
          ],
          [
            2.067831,
            41.309872
          ],
          [
            2.06829,
            41.309519
          ],
          [
            2.068721,
            41.308741
          ],
          [
            2.070282,
            41.308418
          ],
          [
            2.070521,
            41.308292
          ],
          [
            2.070689,
            41.308282
          ],
          [
            2.072885,
            41.308266
          ],
          [
            2.072954,
            41.306619
          ],
          [
            2.070689,
            41.305516
          ],
          [
            2.068777,
            41.30482
          ],
          [
            2.06829,
            41.304777
          ],
          [
            2.068231,
            41.304776
          ],
          [
            2.065892,
            41.3032
          ],
          [
            2.065803,
            41.303022
          ],
          [
            2.063493,
            41.302189
          ],
          [
            2.062383,
            41.302189
          ],
          [
            2.061095,
            41.302471
          ],
          [
            2.05953,
            41.301848
          ],
          [
            2.058696,
            41.302002
          ],
          [
            2.057473,
            41.302104
          ],
          [
            2.056298,
            41.302632
          ],
          [
            2.055582,
            41.302485
          ],
          [
            2.053899,
            41.302695
          ],
          [
            2.05248,
            41.301223
          ],
          [
            2.051941,
            41.299755
          ],
          [
            2.051692,
            41.299424
          ],
          [
            2.052062,
            41.298047
          ],
          [
            2.053275,
            41.297626
          ],
          [
            2.051977,
            41.296184
          ],
          [
            2.053899,
            41.297444
          ],
          [
            2.055292,
            41.297626
          ],
          [
            2.056298,
            41.29784
          ],
          [
            2.056466,
            41.297752
          ],
          [
            2.056496,
            41.297626
          ],
          [
            2.057302,
            41.29658
          ],
          [
            2.058324,
            41.295827
          ],
          [
            2.057404,
            41.294858
          ],
          [
            2.058696,
            41.294246
          ],
          [
            2.059013,
            41.294266
          ],
          [
            2.061095,
            41.294072
          ],
          [
            2.061205,
            41.294112
          ],
          [
            2.063493,
            41.294632
          ],
          [
            2.064234,
            41.294584
          ],
          [
            2.065892,
            41.29519
          ],
          [
            2.06795,
            41.295827
          ],
          [
            2.06829,
            41.29601
          ],
          [
            2.069361,
            41.297626
          ],
          [
            2.070355,
            41.299174
          ],
          [
            2.06829,
            41.299364
          ],
          [
            2.06816,
            41.299327
          ],
          [
            2.068067,
            41.299424
          ],
          [
            2.06829,
            41.299471
          ],
          [
            2.068362,
            41.299479
          ],
          [
            2.070689,
            41.29965
          ],
          [
            2.070962,
            41.299629
          ],
          [
            2.073087,
            41.299666
          ],
          [
            2.073581,
            41.299795
          ],
          [
            2.075486,
            41.300526
          ],
          [
            2.077793,
            41.301223
          ],
          [
            2.077884,
            41.30126
          ],
          [
            2.077958,
            41.301278
          ],
          [
            2.080283,
            41.302133
          ],
          [
            2.081733,
            41.302311
          ],
          [
            2.082681,
            41.302443
          ],
          [
            2.083732,
            41.303022
          ],
          [
            2.084595,
            41.304457
          ],
          [
            2.08478,
            41.30482
          ],
          [
            2.084831,
            41.306433
          ],
          [
            2.084683,
            41.306619
          ],
          [
            2.084553,
            41.308023
          ],
          [
            2.082963,
            41.308418
          ],
          [
            2.08413,
            41.309504
          ],
          [
            2.082681,
            41.308488
          ],
          [
            2.081127,
            41.308418
          ],
          [
            2.080283,
            41.308384
          ],
          [
            2.080241,
            41.308386
          ],
          [
            2.080205,
            41.308418
          ],
          [
            2.079761,
            41.309825
          ],
          [
            2.078637,
            41.310216
          ],
          [
            2.078285,
            41.310517
          ],
          [
            2.079347,
            41.312015
          ],
          [
            2.07986,
            41.313497
          ],
          [
            2.079828,
            41.313814
          ],
          [
            2.080283,
            41.314553
          ],
          [
            2.08059,
            41.314044
          ],
          [
            2.080821,
            41.313814
          ],
          [
            2.081209,
            41.312709
          ],
          [
            2.082681,
            41.312486
          ],
          [
            2.083354,
            41.312519
          ],
          [
            2.084794,
            41.312015
          ],
          [
            2.084021,
            41.311221
          ],
          [
            2.08508,
            41.3119
          ],
          [
            2.086684,
            41.311419
          ],
          [
            2.087478,
            41.311625
          ],
          [
            2.089042,
            41.311389
          ],
          [
            2.089877,
            41.311263
          ],
          [
            2.092066,
            41.312015
          ],
          [
            2.092275,
            41.312161
          ],
          [
            2.094146,
            41.313814
          ],
          [
            2.094674,
            41.314111
          ],
          [
            2.095544,
            41.314466
          ],
          [
            2.097072,
            41.315003
          ],
          [
            2.098382,
            41.315612
          ],
          [
            2.099471,
            41.316453
          ],
          [
            2.101474,
            41.317411
          ],
          [
            2.101869,
            41.319042
          ],
          [
            2.101916,
            41.319209
          ],
          [
            2.104268,
            41.319896
          ],
          [
            2.105816,
            41.320371
          ],
          [
            2.106666,
            41.319863
          ],
          [
            2.108696,
            41.321008
          ],
          [
            2.109065,
            41.321121
          ],
          [
            2.110936,
            41.322807
          ],
          [
            2.111463,
            41.323052
          ],
          [
            2.1125,
            41.323584
          ],
          [
            2.113862,
            41.324083
          ],
          [
            2.115114,
            41.323746
          ],
          [
            2.11626,
            41.322945
          ],
          [
            2.116588,
            41.323052
          ],
          [
            2.118659,
            41.324081
          ],
          [
            2.120628,
            41.324605
          ],
          [
            2.119998,
            41.32561
          ],
          [
            2.119793,
            41.326404
          ],
          [
            2.121057,
            41.326593
          ],
          [
            2.122744,
            41.327669
          ],
          [
            2.122532,
            41.326404
          ],
          [
            2.12179,
            41.325155
          ],
          [
            2.121306,
            41.324605
          ],
          [
            2.122039,
            41.323543
          ],
          [
            2.121795,
            41.322807
          ],
          [
            2.12156,
            41.321385
          ],
          [
            2.121565,
            41.321008
          ],
          [
            2.122702,
            41.320443
          ],
          [
            2.123456,
            41.319765
          ],
          [
            2.124228,
            41.319789
          ],
          [
            2.124269,
            41.319209
          ],
          [
            2.12414,
            41.317924
          ],
          [
            2.125854,
            41.317523
          ],
          [
            2.125878,
            41.317429
          ],
          [
            2.12588,
            41.317411
          ],
          [
            2.125854,
            41.317101
          ],
          [
            2.123846,
            41.315612
          ],
          [
            2.125006,
            41.314976
          ],
          [
            2.125854,
            41.314512
          ],
          [
            2.127972,
            41.315612
          ],
          [
            2.128253,
            41.315818
          ],
          [
            2.128551,
            41.315836
          ],
          [
            2.130651,
            41.315665
          ],
          [
            2.13075,
            41.315686
          ],
          [
            2.130949,
            41.315612
          ],
          [
            2.131027,
            41.314095
          ],
          [
            2.13305,
            41.314121
          ],
          [
            2.135277,
            41.315612
          ],
          [
            2.135448,
            41.315706
          ],
          [
            2.137827,
            41.317411
          ],
          [
            2.137847,
            41.317421
          ],
          [
            2.137879,
            41.317435
          ],
          [
            2.140245,
            41.318661
          ],
          [
            2.141247,
            41.319209
          ],
          [
            2.142644,
            41.320133
          ],
          [
            2.144143,
            41.321008
          ],
          [
            2.143638,
            41.321754
          ],
          [
            2.14297,
            41.322807
          ],
          [
            2.142829,
            41.322946
          ],
          [
            2.142644,
            41.323265
          ],
          [
            2.142196,
            41.32427
          ],
          [
            2.141695,
            41.324605
          ],
          [
            2.141086,
            41.325236
          ],
          [
            2.140245,
            41.32571
          ],
          [
            2.139964,
            41.326193
          ],
          [
            2.1401,
            41.326404
          ],
          [
            2.140245,
            41.326551
          ],
          [
            2.142294,
            41.328203
          ],
          [
            2.142644,
            41.328732
          ],
          [
            2.143024,
            41.328488
          ],
          [
            2.145042,
            41.32853
          ],
          [
            2.145502,
            41.328547
          ],
          [
            2.147441,
            41.329943
          ],
          [
            2.149506,
            41.330001
          ],
          [
            2.148706,
            41.33095
          ],
          [
            2.147888,
            41.3318
          ],
          [
            2.147916,
            41.332157
          ],
          [
            2.148668,
            41.333599
          ],
          [
            2.148149,
            41.33413
          ],
          [
            2.147441,
            41.334854
          ],
          [
            2.146844,
            41.33495
          ],
          [
            2.146161,
            41.335397
          ],
          [
            2.146716,
            41.336652
          ],
          [
            2.145825,
            41.337196
          ],
          [
            2.146507,
            41.338294
          ],
          [
            2.147303,
            41.338995
          ],
          [
            2.147441,
            41.339581
          ],
          [
            2.148901,
            41.34009
          ],
          [
            2.149839,
            41.340408
          ],
          [
            2.15157,
            41.340793
          ],
          [
            2.152238,
            41.341569
          ],
          [
            2.153896,
            41.342037
          ],
          [
            2.154636,
            41.34239
          ],
          [
            2.154905,
            41.342592
          ],
          [
            2.154918,
            41.342803
          ],
          [
            2.155022,
            41.34439
          ],
          [
            2.15566,
            41.345158
          ],
          [
            2.156192,
            41.346189
          ],
          [
            2.156718,
            41.34775
          ],
          [
            2.156489,
            41.347988
          ],
          [
            2.157035,
            41.348536
          ],
          [
            2.15802,
            41.348727
          ],
          [
            2.159433,
            41.349065
          ],
          [
            2.161214,
            41.349786
          ],
          [
            2.161832,
            41.350268
          ],
          [
            2.163135,
            41.351585
          ],
          [
            2.162668,
            41.352212
          ],
          [
            2.161832,
            41.353335
          ],
          [
            2.161759,
            41.353329
          ],
          [
            2.161773,
            41.353384
          ],
          [
            2.161832,
            41.353443
          ],
          [
            2.162899,
            41.355182
          ],
          [
            2.16273,
            41.355856
          ],
          [
            2.161832,
            41.355523
          ],
          [
            2.160264,
            41.355806
          ],
          [
            2.159433,
            41.356373
          ],
          [
            2.158978,
            41.35664
          ],
          [
            2.157035,
            41.356696
          ],
          [
            2.156598,
            41.356654
          ],
          [
            2.154636,
            41.356839
          ],
          [
            2.154441,
            41.356835
          ],
          [
            2.154353,
            41.356981
          ],
          [
            2.154636,
            41.35707
          ],
          [
            2.154876,
            41.357161
          ],
          [
            2.157035,
            41.357384
          ],
          [
            2.158663,
            41.358202
          ],
          [
            2.159433,
            41.358284
          ],
          [
            2.161803,
            41.35878
          ],
          [
            2.159703,
            41.358982
          ],
          [
            2.159433,
            41.359821
          ],
          [
            2.159216,
            41.360416
          ],
          [
            2.159146,
            41.360578
          ],
          [
            2.159433,
            41.361381
          ],
          [
            2.159831,
            41.362377
          ],
          [
            2.159753,
            41.362617
          ],
          [
            2.160252,
            41.364175
          ],
          [
            2.161832,
            41.365405
          ],
          [
            2.164002,
            41.365803
          ],
          [
            2.16423,
            41.36583
          ],
          [
            2.164457,
            41.365974
          ],
          [
            2.165378,
            41.366835
          ],
          [
            2.166282,
            41.367773
          ],
          [
            2.166629,
            41.367886
          ],
          [
            2.166735,
            41.367853
          ],
          [
            2.167887,
            41.367773
          ],
          [
            2.168803,
            41.367605
          ],
          [
            2.169027,
            41.36756
          ],
          [
            2.170435,
            41.36703
          ],
          [
            2.171426,
            41.366484
          ],
          [
            2.173327,
            41.3674
          ],
          [
            2.173824,
            41.367695
          ],
          [
            2.174054,
            41.367773
          ],
          [
            2.176223,
            41.368271
          ],
          [
            2.177217,
            41.369571
          ],
          [
            2.178621,
            41.370671
          ],
          [
            2.180013,
            41.370615
          ],
          [
            2.18102,
            41.370569
          ],
          [
            2.182227,
            41.370477
          ],
          [
            2.183418,
            41.370386
          ],
          [
            2.185188,
            41.37137
          ],
          [
            2.185287,
            41.372771
          ],
          [
            2.18523,
            41.373169
          ],
          [
            2.185817,
            41.374758
          ],
          [
            2.186105,
            41.374967
          ],
          [
            2.188215,
            41.376324
          ],
          [
            2.189804,
            41.376158
          ],
          [
            2.190614,
            41.376192
          ],
          [
            2.191454,
            41.376766
          ],
          [
            2.191941,
            41.377762
          ],
          [
            2.192272,
            41.378565
          ],
          [
            2.192341,
            41.37986
          ],
          [
            2.192431,
            41.380363
          ],
          [
            2.193012,
            41.381218
          ],
          [
            2.193852,
            41.382162
          ],
          [
            2.195411,
            41.383132
          ],
          [
            2.196602,
            41.383056
          ],
          [
            2.197809,
            41.38383
          ],
          [
            2.199023,
            41.383961
          ],
          [
            2.200208,
            41.385156
          ],
          [
            2.201217,
            41.385759
          ],
          [
            2.201727,
            41.386898
          ],
          [
            2.200208,
            41.386589
          ],
          [
            2.199849,
            41.387289
          ],
          [
            2.199768,
            41.387558
          ],
          [
            2.199844,
            41.389084
          ],
          [
            2.199618,
            41.389356
          ],
          [
            2.198848,
            41.390135
          ],
          [
            2.198408,
            41.391155
          ],
          [
            2.198728,
            41.391844
          ],
          [
            2.197809,
            41.392091
          ],
          [
            2.197433,
            41.392672
          ],
          [
            2.19739,
            41.392954
          ],
          [
            2.197519,
            41.394534
          ],
          [
            2.197562,
            41.394752
          ],
          [
            2.197809,
            41.3958
          ],
          [
            2.198417,
            41.396551
          ],
          [
            2.200208,
            41.397802
          ],
          [
            2.200533,
            41.39835
          ],
          [
            2.200456,
            41.398536
          ],
          [
            2.200208,
            41.399233
          ],
          [
            2.199871,
            41.399896
          ],
          [
            2.199933,
            41.400148
          ],
          [
            2.199949,
            41.401753
          ],
          [
            2.199016,
            41.401947
          ],
          [
            2.198747,
            41.402651
          ],
          [
            2.199567,
            41.403746
          ],
          [
            2.200208,
            41.404984
          ],
          [
            2.200798,
            41.405544
          ],
          [
            2.200491,
            41.405757
          ],
          [
            2.200308,
            41.407343
          ],
          [
            2.201826,
            41.408556
          ],
          [
            2.200208,
            41.407405
          ],
          [
            2.198824,
            41.408104
          ],
          [
            2.197809,
            41.408206
          ],
          [
            2.196882,
            41.408446
          ],
          [
            2.196443,
            41.409141
          ],
          [
            2.196835,
            41.41021
          ],
          [
            2.196143,
            41.41094
          ],
          [
            2.197809,
            41.411995
          ],
          [
            2.198627,
            41.412739
          ],
          [
            2.200208,
            41.414204
          ],
          [
            2.200486,
            41.414537
          ],
          [
            2.200798,
            41.41498
          ],
          [
            2.20183,
            41.416336
          ],
          [
            2.202606,
            41.416961
          ],
          [
            2.204194,
            41.418135
          ],
          [
            2.204533,
            41.41958
          ],
          [
            2.20469,
            41.419933
          ],
          [
            2.205005,
            41.421477
          ],
          [
            2.205217,
            41.421732
          ],
          [
            2.207403,
            41.423232
          ],
          [
            2.207529,
            41.423531
          ],
          [
            2.207598,
            41.423676
          ],
          [
            2.207403,
            41.423863
          ],
          [
            2.205269,
            41.423531
          ],
          [
            2.205005,
            41.423167
          ],
          [
            2.204249,
            41.422964
          ],
          [
            2.202606,
            41.421762
          ],
          [
            2.201963,
            41.421732
          ],
          [
            2.200208,
            41.421673
          ],
          [
            2.199499,
            41.421201
          ],
          [
            2.197809,
            41.420352
          ],
          [
            2.197468,
            41.419933
          ],
          [
            2.195411,
            41.419056
          ],
          [
            2.194482,
            41.419237
          ],
          [
            2.19465,
            41.419933
          ],
          [
            2.194581,
            41.42111
          ],
          [
            2.194774,
            41.421732
          ],
          [
            2.195052,
            41.423261
          ],
          [
            2.194987,
            41.423531
          ],
          [
            2.194573,
            41.424701
          ],
          [
            2.193984,
            41.425329
          ],
          [
            2.193904,
            41.425998
          ],
          [
            2.193012,
            41.426381
          ],
          [
            2.192459,
            41.426713
          ],
          [
            2.192008,
            41.427128
          ],
          [
            2.19175,
            41.42798
          ],
          [
            2.190614,
            41.42855
          ],
          [
            2.190382,
            41.428753
          ],
          [
            2.190292,
            41.428927
          ],
          [
            2.190128,
            41.430361
          ],
          [
            2.190022,
            41.430725
          ],
          [
            2.190149,
            41.432175
          ],
          [
            2.189842,
            41.432524
          ],
          [
            2.190614,
            41.43284
          ],
          [
            2.191029,
            41.432835
          ],
          [
            2.191876,
            41.432524
          ],
          [
            2.192058,
            41.431808
          ],
          [
            2.193012,
            41.432103
          ],
          [
            2.193369,
            41.432524
          ],
          [
            2.194572,
            41.433694
          ],
          [
            2.19519,
            41.434322
          ],
          [
            2.195411,
            41.434725
          ],
          [
            2.195916,
            41.436121
          ],
          [
            2.19712,
            41.437403
          ],
          [
            2.197151,
            41.43792
          ],
          [
            2.197021,
            41.439127
          ],
          [
            2.195411,
            41.438077
          ],
          [
            2.194617,
            41.439123
          ],
          [
            2.193962,
            41.439718
          ],
          [
            2.194034,
            41.440485
          ],
          [
            2.194066,
            41.441517
          ],
          [
            2.194533,
            41.442658
          ],
          [
            2.194863,
            41.443316
          ],
          [
            2.194144,
            41.444164
          ],
          [
            2.193928,
            41.445114
          ],
          [
            2.194191,
            41.445998
          ],
          [
            2.193012,
            41.446434
          ],
          [
            2.192469,
            41.446506
          ],
          [
            2.190614,
            41.44648
          ],
          [
            2.189231,
            41.445876
          ],
          [
            2.188215,
            41.445416
          ],
          [
            2.187766,
            41.445114
          ],
          [
            2.186464,
            41.443801
          ],
          [
            2.186323,
            41.443316
          ],
          [
            2.187028,
            41.442425
          ],
          [
            2.187418,
            41.441517
          ],
          [
            2.187609,
            41.441062
          ],
          [
            2.188215,
            41.440447
          ],
          [
            2.188406,
            41.439862
          ],
          [
            2.18847,
            41.439718
          ],
          [
            2.188215,
            41.439433
          ],
          [
            2.186706,
            41.43792
          ],
          [
            2.185817,
            41.436936
          ],
          [
            2.18376,
            41.436378
          ],
          [
            2.183418,
            41.436212
          ],
          [
            2.183263,
            41.436121
          ],
          [
            2.18102,
            41.434576
          ],
          [
            2.180448,
            41.434322
          ],
          [
            2.178621,
            41.432686
          ],
          [
            2.178467,
            41.432524
          ],
          [
            2.17797,
            41.432036
          ],
          [
            2.177392,
            41.430725
          ],
          [
            2.176223,
            41.42977
          ],
          [
            2.175137,
            41.429911
          ],
          [
            2.175704,
            41.430725
          ],
          [
            2.174785,
            41.431446
          ],
          [
            2.173824,
            41.431735
          ],
          [
            2.172616,
            41.430725
          ],
          [
            2.172848,
            41.429993
          ],
          [
            2.173377,
            41.428927
          ],
          [
            2.173541,
            41.428715
          ],
          [
            2.173824,
            41.427454
          ],
          [
            2.174382,
            41.427546
          ],
          [
            2.173958,
            41.427128
          ],
          [
            2.173824,
            41.426872
          ],
          [
            2.173427,
            41.425329
          ],
          [
            2.173538,
            41.425114
          ],
          [
            2.173824,
            41.424244
          ],
          [
            2.174036,
            41.42369
          ],
          [
            2.174078,
            41.423531
          ],
          [
            2.174675,
            41.42237
          ],
          [
            2.175181,
            41.421732
          ],
          [
            2.175392,
            41.421109
          ],
          [
            2.176223,
            41.420882
          ],
          [
            2.177689,
            41.421033
          ],
          [
            2.178621,
            41.421031
          ],
          [
            2.179606,
            41.420672
          ],
          [
            2.179702,
            41.419933
          ],
          [
            2.178621,
            41.419123
          ],
          [
            2.177545,
            41.419127
          ],
          [
            2.176223,
            41.419124
          ],
          [
            2.174925,
            41.41896
          ],
          [
            2.173824,
            41.418736
          ],
          [
            2.172442,
            41.418135
          ],
          [
            2.171426,
            41.417333
          ],
          [
            2.170333,
            41.416336
          ],
          [
            2.169027,
            41.41574
          ],
          [
            2.168537,
            41.415969
          ],
          [
            2.167019,
            41.416336
          ],
          [
            2.168363,
            41.417636
          ],
          [
            2.166629,
            41.418111
          ],
          [
            2.166052,
            41.416336
          ],
          [
            2.16423,
            41.416037
          ],
          [
            2.163122,
            41.415505
          ],
          [
            2.161832,
            41.415228
          ],
          [
            2.16098,
            41.414537
          ],
          [
            2.159433,
            41.413041
          ],
          [
            2.159125,
            41.412739
          ],
          [
            2.157035,
            41.411446
          ],
          [
            2.155478,
            41.411572
          ],
          [
            2.154636,
            41.411478
          ],
          [
            2.15342,
            41.411827
          ],
          [
            2.152238,
            41.412092
          ],
          [
            2.151593,
            41.412256
          ],
          [
            2.150811,
            41.412739
          ],
          [
            2.15133,
            41.413857
          ],
          [
            2.151001,
            41.414537
          ],
          [
            2.151467,
            41.415758
          ],
          [
            2.149839,
            41.415035
          ],
          [
            2.149461,
            41.416052
          ],
          [
            2.148839,
            41.416336
          ],
          [
            2.148076,
            41.416813
          ],
          [
            2.147441,
            41.416782
          ],
          [
            2.145561,
            41.416725
          ],
          [
            2.145042,
            41.417945
          ],
          [
            2.144999,
            41.418103
          ],
          [
            2.145001,
            41.418135
          ],
          [
            2.145042,
            41.418327
          ],
          [
            2.146596,
            41.419933
          ],
          [
            2.145421,
            41.420218
          ],
          [
            2.145042,
            41.420643
          ],
          [
            2.14426,
            41.421145
          ],
          [
            2.142778,
            41.421732
          ],
          [
            2.145042,
            41.422407
          ],
          [
            2.146976,
            41.423531
          ],
          [
            2.146521,
            41.42464
          ],
          [
            2.146543,
            41.425329
          ],
          [
            2.146223,
            41.426215
          ],
          [
            2.146054,
            41.427128
          ],
          [
            2.147341,
            41.428852
          ],
          [
            2.147365,
            41.428927
          ],
          [
            2.147441,
            41.429035
          ],
          [
            2.148254,
            41.430725
          ],
          [
            2.148073,
            41.431199
          ],
          [
            2.147441,
            41.431835
          ],
          [
            2.146955,
            41.43216
          ],
          [
            2.145525,
            41.432524
          ],
          [
            2.147441,
            41.433797
          ],
          [
            2.149242,
            41.433875
          ],
          [
            2.149839,
            41.434199
          ],
          [
            2.150003,
            41.434322
          ],
          [
            2.152055,
            41.435984
          ],
          [
            2.149839,
            41.434805
          ],
          [
            2.148192,
            41.434886
          ],
          [
            2.149058,
            41.436121
          ],
          [
            2.1483,
            41.436765
          ],
          [
            2.147441,
            41.436804
          ],
          [
            2.145052,
            41.436121
          ],
          [
            2.146465,
            41.435389
          ],
          [
            2.147126,
            41.434322
          ],
          [
            2.145042,
            41.432676
          ],
          [
            2.144039,
            41.432524
          ],
          [
            2.142644,
            41.431865
          ],
          [
            2.142377,
            41.430725
          ],
          [
            2.142224,
            41.43041
          ],
          [
            2.142109,
            41.428927
          ],
          [
            2.140245,
            41.427132
          ],
          [
            2.140238,
            41.427128
          ],
          [
            2.137847,
            41.425411
          ],
          [
            2.137809,
            41.425329
          ],
          [
            2.13626,
            41.424139
          ],
          [
            2.137847,
            41.425251
          ],
          [
            2.138673,
            41.42415
          ],
          [
            2.138799,
            41.423531
          ],
          [
            2.139038,
            41.422625
          ],
          [
            2.139648,
            41.421732
          ],
          [
            2.138751,
            41.420611
          ],
          [
            2.138108,
            41.419933
          ],
          [
            2.137847,
            41.419729
          ],
          [
            2.136318,
            41.418135
          ],
          [
            2.136415,
            41.417061
          ],
          [
            2.137736,
            41.416336
          ],
          [
            2.137775,
            41.416282
          ],
          [
            2.137461,
            41.414537
          ],
          [
            2.137543,
            41.41431
          ],
          [
            2.137558,
            41.412739
          ],
          [
            2.137465,
            41.412453
          ],
          [
            2.137149,
            41.41094
          ],
          [
            2.137031,
            41.410329
          ],
          [
            2.137847,
            41.409881
          ],
          [
            2.138195,
            41.409403
          ],
          [
            2.138477,
            41.409141
          ],
          [
            2.137847,
            41.408708
          ]
        ],
        [
          [
            2.178451,
            41.427
          ],
          [
            2.178247,
            41.427128
          ],
          [
            2.178621,
            41.427885
          ],
          [
            2.178727,
            41.427207
          ],
          [
            2.178927,
            41.427128
          ],
          [
            2.178621,
            41.426903
          ],
          [
            2.178451,
            41.427
          ]
        ],
        [
          [
            2.10288,
            41.337954
          ],
          [
            2.102909,
            41.338995
          ],
          [
            2.102908,
            41.339774
          ],
          [
            2.103338,
            41.340793
          ],
          [
            2.104268,
            41.341577
          ],
          [
            2.105076,
            41.341399
          ],
          [
            2.105812,
            41.340793
          ],
          [
            2.105811,
            41.340152
          ],
          [
            2.105179,
            41.338995
          ],
          [
            2.104268,
            41.338275
          ],
          [
            2.10288,
            41.337954
          ]
        ],
        [
          [
            2.109063,
            41.340792
          ],
          [
            2.10906,
            41.340793
          ],
          [
            2.109065,
            41.340794
          ],
          [
            2.109066,
            41.340794
          ],
          [
            2.109066,
            41.340793
          ],
          [
            2.109065,
            41.340791
          ],
          [
            2.109063,
            41.340792
          ]
        ],
        [
          [
            2.111362,
            41.338919
          ],
          [
            2.111204,
            41.338995
          ],
          [
            2.111463,
            41.339069
          ],
          [
            2.112236,
            41.339574
          ],
          [
            2.111745,
            41.338995
          ],
          [
            2.111463,
            41.338922
          ],
          [
            2.111362,
            41.338919
          ]
        ],
        [
          [
            2.125847,
            41.335392
          ],
          [
            2.12584,
            41.335397
          ],
          [
            2.125854,
            41.335402
          ],
          [
            2.125861,
            41.335403
          ],
          [
            2.125863,
            41.335397
          ],
          [
            2.125854,
            41.335392
          ],
          [
            2.125847,
            41.335392
          ]
        ]
      ],
      [
        [
          [
            2.200508,
            41.402172
          ],
          [
            2.202606,
            41.402127
          ],
          [
            2.203384,
            41.40253
          ],
          [
            2.204313,
            41.401947
          ],
          [
            2.204923,
            41.401886
          ],
          [
            2.205005,
            41.401876
          ],
          [
            2.205102,
            41.401947
          ],
          [
            2.205107,
            41.402024
          ],
          [
            2.205453,
            41.403746
          ],
          [
            2.205649,
            41.404229
          ],
          [
            2.205005,
            41.404832
          ],
          [
            2.204688,
            41.405307
          ],
          [
            2.202606,
            41.405116
          ],
          [
            2.200649,
            41.403746
          ],
          [
            2.200508,
            41.402172
          ]
        ]
      ],
      [
        [
          [
            2.191505,
            41.447582
          ],
          [
            2.193012,
            41.447549
          ],
          [
            2.193751,
            41.447467
          ],
          [
            2.195411,
            41.447919
          ],
          [
            2.19717,
            41.448712
          ],
          [
            2.196635,
            41.44963
          ],
          [
            2.195411,
            41.45011
          ],
          [
            2.195268,
            41.450403
          ],
          [
            2.193012,
            41.449647
          ],
          [
            2.19164,
            41.448712
          ],
          [
            2.191505,
            41.447582
          ]
        ]
      ],
      [
        [
          [
            2.156679,
            41.437653
          ],
          [
            2.157035,
            41.437623
          ],
          [
            2.157287,
            41.43792
          ],
          [
            2.158743,
            41.439201
          ],
          [
            2.157035,
            41.438091
          ],
          [
            2.156482,
            41.43792
          ],
          [
            2.156679,
            41.437653
          ]
        ]
      ],
      [
        [
          [
            2.209134,
            41.430224
          ],
          [
            2.209802,
            41.429958
          ],
          [
            2.210442,
            41.430725
          ],
          [
            2.210116,
            41.430961
          ],
          [
            2.209802,
            41.431048
          ],
          [
            2.208979,
            41.430725
          ],
          [
            2.209134,
            41.430224
          ]
        ]
      ],
      [
        [
          [
            2.209152,
            41.408654
          ],
          [
            2.209802,
            41.407466
          ],
          [
            2.210082,
            41.409141
          ],
          [
            2.211677,
            41.410548
          ],
          [
            2.209802,
            41.409256
          ],
          [
            2.208727,
            41.409141
          ],
          [
            2.209152,
            41.408654
          ]
        ]
      ],
      [
        [
          [
            2.187794,
            41.372853
          ],
          [
            2.188215,
            41.37247
          ],
          [
            2.188728,
            41.373169
          ],
          [
            2.188703,
            41.373534
          ],
          [
            2.188215,
            41.373559
          ],
          [
            2.18771,
            41.373169
          ],
          [
            2.187794,
            41.372853
          ]
        ]
      ],
      [
        [
          [
            2.073003,
            41.382099
          ],
          [
            2.073087,
            41.381563
          ],
          [
            2.073762,
            41.382162
          ],
          [
            2.073203,
            41.382249
          ],
          [
            2.073087,
            41.382329
          ],
          [
            2.072979,
            41.382162
          ],
          [
            2.073003,
            41.382099
          ]
        ]
      ],
      [
        [
          [
            2.069276,
            41.287573
          ],
          [
            2.070689,
            41.287006
          ],
          [
            2.072936,
            41.288633
          ],
          [
            2.071975,
            41.289597
          ],
          [
            2.070689,
            41.289612
          ],
          [
            2.068901,
            41.288633
          ],
          [
            2.069276,
            41.287573
          ]
        ]
      ]
    ]
  },
  "properties": {
    "location": "feina",
    "minutes": 45,
    "mode": "transit"
  }
}
