{
  "type": "Feature",
  "geometry": {
    "type": "MultiPolygon",
    "coordinates": [
      [
        [
          [
            2.164736,
            41.389356
          ],
          [
            2.16423,
            41.389086
          ],
          [
            2.163088,
            41.3885
          ],
          [
            2.161832,
            41.387909
          ],
          [
            2.160868,
            41.387558
          ],
          [
            2.159433,
            41.387033
          ],
          [
            2.158465,
            41.386832
          ],
          [
            2.157035,
            41.386489
          ],
          [
            2.154659,
            41.385759
          ],
          [
            2.154636,
            41.385747
          ],
          [
            2.1545,
            41.385657
          ],
          [
            2.152238,
            41.384153
          ],
          [
            2.150054,
            41.384122
          ],
          [
            2.149839,
            41.384126
          ],
          [
            2.147979,
            41.384364
          ],
          [
            2.147966,
            41.385759
          ],
          [
            2.148671,
            41.386682
          ],
          [
            2.147441,
            41.386121
          ],
          [
            2.145242,
            41.385909
          ],
          [
            2.145042,
            41.385865
          ],
          [
            2.144665,
            41.385759
          ],
          [
            2.142644,
            41.384284
          ],
          [
            2.141731,
            41.383961
          ],
          [
            2.140245,
            41.383789
          ],
          [
            2.139962,
            41.383748
          ],
          [
            2.139561,
            41.383961
          ],
          [
            2.138501,
            41.384451
          ],
          [
            2.137847,
            41.385262
          ],
          [
            2.137628,
            41.385596
          ],
          [
            2.137519,
            41.385759
          ],
          [
            2.136458,
            41.386516
          ],
          [
            2.135557,
            41.387558
          ],
          [
            2.135536,
            41.387624
          ],
          [
            2.135448,
            41.387692
          ],
          [
            2.134381,
            41.388556
          ],
          [
            2.134284,
            41.389356
          ],
          [
            2.133983,
            41.390057
          ],
          [
            2.13305,
            41.39105
          ],
          [
            2.132972,
            41.391097
          ],
          [
            2.132906,
            41.391155
          ],
          [
            2.131974,
            41.392147
          ],
          [
            2.131826,
            41.392954
          ],
          [
            2.131785,
            41.393804
          ],
          [
            2.130651,
            41.393729
          ],
          [
            2.129241,
            41.393695
          ],
          [
            2.128253,
            41.393611
          ],
          [
            2.126284,
            41.392954
          ],
          [
            2.125854,
            41.392471
          ],
          [
            2.125226,
            41.391155
          ],
          [
            2.123456,
            41.389509
          ],
          [
            2.121611,
            41.389772
          ],
          [
            2.121057,
            41.389773
          ],
          [
            2.119842,
            41.389356
          ],
          [
            2.12061,
            41.389021
          ],
          [
            2.120687,
            41.387558
          ],
          [
            2.120669,
            41.387267
          ],
          [
            2.121057,
            41.386963
          ],
          [
            2.121785,
            41.386305
          ],
          [
            2.121782,
            41.385759
          ],
          [
            2.122049,
            41.384704
          ],
          [
            2.122176,
            41.383961
          ],
          [
            2.122501,
            41.383245
          ],
          [
            2.122658,
            41.382162
          ],
          [
            2.122133,
            41.38117
          ],
          [
            2.121588,
            41.380363
          ],
          [
            2.121057,
            41.379896
          ],
          [
            2.120489,
            41.379937
          ],
          [
            2.118659,
            41.380338
          ],
          [
            2.118634,
            41.380345
          ],
          [
            2.11626,
            41.38008
          ],
          [
            2.115368,
            41.379694
          ],
          [
            2.113862,
            41.379505
          ],
          [
            2.112101,
            41.378565
          ],
          [
            2.111463,
            41.378101
          ],
          [
            2.109277,
            41.376925
          ],
          [
            2.109065,
            41.376804
          ],
          [
            2.108988,
            41.376766
          ],
          [
            2.106666,
            41.375821
          ],
          [
            2.105374,
            41.375797
          ],
          [
            2.104268,
            41.375681
          ],
          [
            2.102718,
            41.375604
          ],
          [
            2.101869,
            41.375746
          ],
          [
            2.099804,
            41.374967
          ],
          [
            2.099471,
            41.374852
          ],
          [
            2.098905,
            41.374543
          ],
          [
            2.097072,
            41.37351
          ],
          [
            2.096496,
            41.373169
          ],
          [
            2.096305,
            41.372594
          ],
          [
            2.096195,
            41.37137
          ],
          [
            2.094674,
            41.370503
          ],
          [
            2.093763,
            41.369571
          ],
          [
            2.09345,
            41.368654
          ],
          [
            2.092888,
            41.367773
          ],
          [
            2.092408,
            41.366074
          ],
          [
            2.092409,
            41.365974
          ],
          [
            2.092275,
            41.365724
          ],
          [
            2.091015,
            41.364175
          ],
          [
            2.090732,
            41.363019
          ],
          [
            2.090657,
            41.362377
          ],
          [
            2.090616,
            41.361132
          ],
          [
            2.09064,
            41.360578
          ],
          [
            2.091739,
            41.360176
          ],
          [
            2.092275,
            41.359777
          ],
          [
            2.093233,
            41.359498
          ],
          [
            2.09368,
            41.35878
          ],
          [
            2.093974,
            41.358255
          ],
          [
            2.094674,
            41.357408
          ],
          [
            2.094965,
            41.357199
          ],
          [
            2.094962,
            41.356981
          ],
          [
            2.095329,
            41.355674
          ],
          [
            2.095429,
            41.355182
          ],
          [
            2.095857,
            41.354271
          ],
          [
            2.097072,
            41.353878
          ],
          [
            2.097553,
            41.353744
          ],
          [
            2.098857,
            41.353384
          ],
          [
            2.099299,
            41.353255
          ],
          [
            2.099471,
            41.353212
          ],
          [
            2.101077,
            41.35279
          ],
          [
            2.101869,
            41.352624
          ],
          [
            2.102882,
            41.352345
          ],
          [
            2.104268,
            41.351627
          ],
          [
            2.104313,
            41.351619
          ],
          [
            2.104328,
            41.351585
          ],
          [
            2.104592,
            41.350029
          ],
          [
            2.104716,
            41.349786
          ],
          [
            2.104797,
            41.348385
          ],
          [
            2.104798,
            41.347988
          ],
          [
            2.104268,
            41.347559
          ],
          [
            2.102532,
            41.346189
          ],
          [
            2.101869,
            41.345441
          ],
          [
            2.101366,
            41.34439
          ],
          [
            2.101361,
            41.344009
          ],
          [
            2.101237,
            41.342592
          ],
          [
            2.101433,
            41.342265
          ],
          [
            2.101869,
            41.341957
          ],
          [
            2.10288,
            41.341551
          ],
          [
            2.104268,
            41.341577
          ],
          [
            2.105076,
            41.341399
          ],
          [
            2.106666,
            41.341747
          ],
          [
            2.107979,
            41.342592
          ],
          [
            2.109065,
            41.343534
          ],
          [
            2.110488,
            41.34366
          ],
          [
            2.111463,
            41.343711
          ],
          [
            2.113297,
            41.34439
          ],
          [
            2.11338,
            41.345828
          ],
          [
            2.113536,
            41.346189
          ],
          [
            2.113862,
            41.346596
          ],
          [
            2.114794,
            41.347988
          ],
          [
            2.115936,
            41.349544
          ],
          [
            2.116117,
            41.349786
          ],
          [
            2.11626,
            41.35004
          ],
          [
            2.116495,
            41.349963
          ],
          [
            2.116676,
            41.349786
          ],
          [
            2.117889,
            41.349209
          ],
          [
            2.118305,
            41.347988
          ],
          [
            2.118153,
            41.347608
          ],
          [
            2.118303,
            41.346189
          ],
          [
            2.118311,
            41.345928
          ],
          [
            2.118659,
            41.344632
          ],
          [
            2.11868,
            41.344407
          ],
          [
            2.118699,
            41.34439
          ],
          [
            2.120671,
            41.344101
          ],
          [
            2.121057,
            41.344112
          ],
          [
            2.122868,
            41.34395
          ],
          [
            2.123456,
            41.343785
          ],
          [
            2.125093,
            41.343819
          ],
          [
            2.125624,
            41.342592
          ],
          [
            2.123937,
            41.341154
          ],
          [
            2.124005,
            41.340793
          ],
          [
            2.125444,
            41.340485
          ],
          [
            2.125854,
            41.340588
          ],
          [
            2.127848,
            41.34049
          ],
          [
            2.128253,
            41.340542
          ],
          [
            2.130627,
            41.340775
          ],
          [
            2.130651,
            41.340779
          ],
          [
            2.130694,
            41.340793
          ],
          [
            2.130743,
            41.340862
          ],
          [
            2.131822,
            41.342592
          ],
          [
            2.131712,
            41.343388
          ],
          [
            2.130672,
            41.34439
          ],
          [
            2.13305,
            41.345094
          ],
          [
            2.134693,
            41.345623
          ],
          [
            2.135448,
            41.345613
          ],
          [
            2.136075,
            41.346189
          ],
          [
            2.136719,
            41.347142
          ],
          [
            2.137231,
            41.347988
          ],
          [
            2.1373,
            41.349376
          ],
          [
            2.137219,
            41.349786
          ],
          [
            2.137847,
            41.350902
          ],
          [
            2.138583,
            41.350339
          ],
          [
            2.139234,
            41.349786
          ],
          [
            2.139325,
            41.349096
          ],
          [
            2.140245,
            41.349145
          ],
          [
            2.14095,
            41.348517
          ],
          [
            2.142644,
            41.348094
          ],
          [
            2.142737,
            41.348058
          ],
          [
            2.145042,
            41.348219
          ],
          [
            2.145407,
            41.348261
          ],
          [
            2.147441,
            41.348592
          ],
          [
            2.148115,
            41.349786
          ],
          [
            2.149103,
            41.351033
          ],
          [
            2.149238,
            41.351585
          ],
          [
            2.148796,
            41.352602
          ],
          [
            2.147934,
            41.353384
          ],
          [
            2.147635,
            41.35353
          ],
          [
            2.147441,
            41.354687
          ],
          [
            2.147303,
            41.355079
          ],
          [
            2.147304,
            41.355182
          ],
          [
            2.147013,
            41.356661
          ],
          [
            2.146926,
            41.356981
          ],
          [
            2.14715,
            41.358562
          ],
          [
            2.147155,
            41.35878
          ],
          [
            2.147387,
            41.360538
          ],
          [
            2.147352,
            41.360578
          ],
          [
            2.146958,
            41.362015
          ],
          [
            2.146145,
            41.362377
          ],
          [
            2.145467,
            41.362696
          ],
          [
            2.146114,
            41.364175
          ],
          [
            2.146233,
            41.365069
          ],
          [
            2.146246,
            41.365974
          ],
          [
            2.147441,
            41.366976
          ],
          [
            2.148814,
            41.367773
          ],
          [
            2.149839,
            41.368275
          ],
          [
            2.150502,
            41.36827
          ],
          [
            2.152238,
            41.368471
          ],
          [
            2.154505,
            41.369473
          ],
          [
            2.154636,
            41.36953
          ],
          [
            2.154719,
            41.369571
          ],
          [
            2.155168,
            41.36997
          ],
          [
            2.156669,
            41.37137
          ],
          [
            2.157035,
            41.371716
          ],
          [
            2.158378,
            41.372377
          ],
          [
            2.159433,
            41.372951
          ],
          [
            2.159955,
            41.373169
          ],
          [
            2.161832,
            41.373887
          ],
          [
            2.164127,
            41.37489
          ],
          [
            2.16423,
            41.374932
          ],
          [
            2.164492,
            41.374967
          ],
          [
            2.164301,
            41.37502
          ],
          [
            2.16423,
            41.375233
          ],
          [
            2.163878,
            41.376502
          ],
          [
            2.163149,
            41.376766
          ],
          [
            2.163559,
            41.378061
          ],
          [
            2.163979,
            41.378565
          ],
          [
            2.16423,
            41.378668
          ],
          [
            2.165481,
            41.380363
          ],
          [
            2.166,
            41.381691
          ],
          [
            2.166058,
            41.382162
          ],
          [
            2.166629,
            41.382531
          ],
          [
            2.167243,
            41.382622
          ],
          [
            2.169027,
            41.382703
          ],
          [
            2.169738,
            41.382695
          ],
          [
            2.171426,
            41.382325
          ],
          [
            2.173004,
            41.383961
          ],
          [
            2.173824,
            41.385428
          ],
          [
            2.174217,
            41.385759
          ],
          [
            2.175346,
            41.386901
          ],
          [
            2.176093,
            41.387558
          ],
          [
            2.176223,
            41.387724
          ],
          [
            2.17744,
            41.389356
          ],
          [
            2.178621,
            41.39091
          ],
          [
            2.180156,
            41.390508
          ],
          [
            2.18102,
            41.390554
          ],
          [
            2.18169,
            41.391155
          ],
          [
            2.183418,
            41.39274
          ],
          [
            2.183649,
            41.392954
          ],
          [
            2.184115,
            41.393476
          ],
          [
            2.183418,
            41.39325
          ],
          [
            2.182007,
            41.393694
          ],
          [
            2.18102,
            41.393841
          ],
          [
            2.17957,
            41.392954
          ],
          [
            2.178621,
            41.391618
          ],
          [
            2.176529,
            41.391155
          ],
          [
            2.176223,
            41.391116
          ],
          [
            2.176202,
            41.39114
          ],
          [
            2.173824,
            41.390995
          ],
          [
            2.173516,
            41.390924
          ],
          [
            2.171426,
            41.39085
          ],
          [
            2.171062,
            41.390882
          ],
          [
            2.169027,
            41.390949
          ],
          [
            2.168651,
            41.390873
          ],
          [
            2.166629,
            41.390767
          ],
          [
            2.164736,
            41.389356
          ]
        ]
      ],
      [
        [
          [
            2.139305,
            41.345484
          ],
          [
            2.140245,
            41.344736
          ],
          [
            2.140662,
            41.344703
          ],
          [
            2.140743,
            41.34439
          ],
          [
            2.141251,
            41.343346
          ],
          [
            2.141203,
            41.342592
          ],
          [
            2.141668,
            41.34186
          ],
          [
            2.141881,
            41.340793
          ],
          [
            2.14162,
            41.340026
          ],
          [
            2.142353,
            41.338995
          ],
          [
            2.140489,
            41.337379
          ],
          [
            2.142644,
            41.338269
          ],
          [
            2.142779,
            41.338995
          ],
          [
            2.143174,
            41.339392
          ],
          [
            2.144094,
            41.340793
          ],
          [
            2.145042,
            41.341263
          ],
          [
            2.145688,
            41.342592
          ],
          [
            2.146572,
            41.343739
          ],
          [
            2.14659,
            41.34439
          ],
          [
            2.146396,
            41.345406
          ],
          [
            2.145711,
            41.346189
          ],
          [
            2.145848,
            41.346793
          ],
          [
            2.145042,
            41.347247
          ],
          [
            2.144582,
            41.347643
          ],
          [
            2.142644,
            41.347878
          ],
          [
            2.14248,
            41.347865
          ],
          [
            2.140245,
            41.3474
          ],
          [
            2.139234,
            41.346189
          ],
          [
            2.139305,
            41.345484
          ]
        ]
      ],
      [
        [
          [
            2.111243,
            41.331635
          ],
          [
            2.111463,
            41.331602
          ],
          [
            2.112151,
            41.3318
          ],
          [
            2.113862,
            41.332661
          ],
          [
            2.114433,
            41.333599
          ],
          [
            2.114356,
            41.33397
          ],
          [
            2.113862,
            41.334677
          ],
          [
            2.11319,
            41.334893
          ],
          [
            2.111555,
            41.335397
          ],
          [
            2.111507,
            41.33543
          ],
          [
            2.111463,
            41.335432
          ],
          [
            2.111427,
            41.335397
          ],
          [
            2.1114,
            41.33535
          ],
          [
            2.109941,
            41.333599
          ],
          [
            2.110389,
            41.332793
          ],
          [
            2.111106,
            41.3318
          ],
          [
            2.111243,
            41.331635
          ]
        ]
      ],
      [
        [
          [
            2.111222,
            41.38378
          ],
          [
            2.111463,
            41.383663
          ],
          [
            2.112096,
            41.383961
          ],
          [
            2.111846,
            41.384248
          ],
          [
            2.111463,
            41.384373
          ],
          [
            2.11093,
            41.383961
          ],
          [
            2.111222,
            41.38378
          ]
        ]
      ],
      [
        [
          [
            2.168375,
            41.374479
          ],
          [
            2.169027,
            41.374445
          ],
          [
            2.170025,
            41.374967
          ],
          [
            2.169386,
            41.375236
          ],
          [
            2.169027,
            41.375247
          ],
          [
            2.167634,
            41.374967
          ],
          [
            2.168375,
            41.374479
          ]
        ]
      ],
      [
        [
          [
            2.139859,
            41.335107
          ],
          [
            2.140245,
            41.335079
          ],
          [
            2.140599,
            41.335397
          ],
          [
            2.141475,
            41.33632
          ],
          [
            2.140245,
            41.337074
          ],
          [
            2.139864,
            41.335397
          ],
          [
            2.139859,
            41.335107
          ]
        ]
      ],
      [
        [
          [
            2.101658,
            41.328044
          ],
          [
            2.101869,
            41.328007
          ],
          [
            2.102543,
            41.328203
          ],
          [
            2.103471,
            41.329404
          ],
          [
            2.101869,
            41.32934
          ],
          [
            2.101499,
            41.328203
          ],
          [
            2.101658,
            41.328044
          ]
        ]
      ]
    ]
  },
  "properties": {
    "location": "feina",
    "minutes": 30,
    "mode": "transit"
  }
}
