{
  "type": "Feature",
  "geometry": {
    "type": "Polygon",
    "coordinates": [
      [
        [
          2.131000,
          41.369689
        ],
        [
          2.126295,
          41.368205
        ],
        [
          2.125630,
          41.366500
        ],
        [
          2.127000,
          41.365771
        ],
        [
          2.126569,
          41.364500
        ],
        [
          2.127971,
          41.363471
        ],
        [
          2.131000,
          41.362957
        ],
        [
          2.132644,
          41.363500
        ],
        [
          2.134081,
          41.367500
        ],
        [
          2.132839,
          41.369339
        ],
        [
          2.131000,
          41.369689
        ]
      ]
    ]
  },
  "properties": {
    "location": "feina",
    "minutes": 5,
    "mode": "walk"
  }
}
