{
  "type": "Feature",
  "geometry": {
    "type": "Polygon",
    "coordinates": [
      [
        [
          2.124000,
          41.350026
        ],
        [
          2.121346,
          41.348654
        ],
        [
          2.119195,
          41.349000
        ],
        [
          2.119000,
          41.346558
        ],
        [
          2.116537,
          41.345000
        ],
        [
          2.114083,
          41.344917
        ],
        [
          2.114083,
          41.343083
        ],
        [
          2.115027,
          41.343027
        ],
        [
          2.115079,
          41.342079
        ],
        [
          2.117035,
          41.341000
        ],
        [
          2.115096,
          41.340904
        ],
        [
          2.115000,
          41.338943
        ],
        [
          2.111000,
          41.338844
        ],
        [
          2.110000,
          41.337909
        ],
        [
          2.108592,
          41.340592
        ],
        [
          2.107000,
          41.340806
        ],
        [
          2.105120,
          41.337880
        ],
        [
          2.102586,
          41.337414
        ],
        [
          2.102593,
          41.335593
        ],
        [
          2.106000,
          41.336176
        ],
        [
          2.104212,
          41.335000
        ],
        [
          2.106695,
          41.332695
        ],
        [
          2.110073,
          41.332073
        ],
        [
          2.110656,
          41.328656
        ],
        [
          2.112000,
          41.326715
        ],
        [
          2.114165,
          41.326835
        ],
        [
          2.115000,
          41.328767
        ],
        [
          2.119179,
          41.330000
        ],
        [
          2.118686,
          41.333000
        ],
        [
          2.123157,
          41.332157
        ],
        [
          2.123009,
          41.331000
        ],
        [
          2.124000,
          41.330709
        ],
        [
          2.128000,
          41.332546
        ],
        [
          2.130000,
          41.335170
        ],
        [
          2.131000,
          41.333250
        ],
        [
          2.134000,
          41.334364
        ],
        [
          2.133870,
          41.336000
        ],
        [
          2.131779,
          41.337000
        ],
        [
          2.132564,
          41.338000
        ],
        [
          2.132000,
          41.339466
        ],
        [
          2.130829,
          41.338829
        ],
        [
          2.131355,
          41.341000
        ],
        [
          2.130289,
          41.342000
        ],
        [
          2.132601,
          41.344000
        ],
        [
          2.132635,
          41.344635
        ],
        [
          2.130892,
          41.345108
        ],
        [
          2.133470,
          41.345530
        ],
        [
          2.135037,
          41.346963
        ],
        [
          2.134696,
          41.347696
        ],
        [
          2.130000,
          41.349334
        ],
        [
          2.129000,
          41.348924
        ],
        [
          2.124000,
          41.350026
        ]
      ]
    ]
  },
  "properties": {
    "location": "gimnas",
    "minutes": 30,
    "mode": "walk"
  }
}
