{
  "type": "Feature",
  "geometry": {
    "type": "MultiPolygon",
    "coordinates": [
      [
        [
          [
            2.10755,
            41.335457
          ],
          [
            2.107817,
            41.335083
          ],
          [
            2.108758,
            41.334565
          ],
          [
            2.108939,
            41.333859
          ],
          [
            2.10967,
            41.333452
          ],
          [
            2.110003,
            41.33206
          ],
          [
            2.110012,
            41.33191
          ],
          [
            2.110212,
            41.331855
          ],
          [
            2.112218,
            41.331767
          ],
          [
            2.112607,
            41.331441
          ],
          [
            2.114404,
            41.33206
          ],
          [
            2.115002,
            41.332535
          ],
          [
            2.115463,
            41.332406
          ],
          [
            2.117397,
            41.332664
          ],
          [
            2.118959,
            41.333859
          ],
          [
            2.119352,
            41.335326
          ],
          [
            2.119222,
            41.335657
          ],
          [
            2.11821,
            41.336267
          ],
          [
            2.118105,
            41.337456
          ],
          [
            2.119793,
            41.338621
          ],
          [
            2.121509,
            41.338744
          ],
          [
            2.121176,
            41.337456
          ],
          [
            2.120224,
            41.335981
          ],
          [
            2.122188,
            41.336696
          ],
          [
            2.12359,
            41.336711
          ],
          [
            2.124583,
            41.336004
          ],
          [
            2.125196,
            41.336118
          ],
          [
            2.126548,
            41.335657
          ],
          [
            2.126908,
            41.335605
          ],
          [
            2.126978,
            41.33562
          ],
          [
            2.127214,
            41.335657
          ],
          [
            2.127148,
            41.335785
          ],
          [
            2.128183,
            41.337456
          ],
          [
            2.127848,
            41.338109
          ],
          [
            2.126978,
            41.338216
          ],
          [
            2.125812,
            41.338379
          ],
          [
            2.124583,
            41.338622
          ],
          [
            2.123759,
            41.338636
          ],
          [
            2.123405,
            41.339254
          ],
          [
            2.123334,
            41.340116
          ],
          [
            2.1237,
            41.341053
          ],
          [
            2.124583,
            41.341237
          ],
          [
            2.125818,
            41.341981
          ],
          [
            2.126978,
            41.342293
          ],
          [
            2.127522,
            41.342852
          ],
          [
            2.12822,
            41.343784
          ],
          [
            2.126978,
            41.343385
          ],
          [
            2.126493,
            41.344286
          ],
          [
            2.124583,
            41.343854
          ],
          [
            2.123568,
            41.343888
          ],
          [
            2.122188,
            41.343906
          ],
          [
            2.121087,
            41.343824
          ],
          [
            2.119793,
            41.344306
          ],
          [
            2.119442,
            41.344387
          ],
          [
            2.118106,
            41.34465
          ],
          [
            2.118741,
            41.345659
          ],
          [
            2.117397,
            41.345234
          ],
          [
            2.115836,
            41.345277
          ],
          [
            2.115002,
            41.345299
          ],
          [
            2.114138,
            41.34465
          ],
          [
            2.114178,
            41.344031
          ],
          [
            2.114253,
            41.342852
          ],
          [
            2.114448,
            41.342436
          ],
          [
            2.115002,
            41.341756
          ],
          [
            2.11559,
            41.341495
          ],
          [
            2.11567,
            41.341053
          ],
          [
            2.115002,
            41.339975
          ],
          [
            2.113151,
            41.339254
          ],
          [
            2.112607,
            41.339156
          ],
          [
            2.112391,
            41.339092
          ],
          [
            2.110212,
            41.338546
          ],
          [
            2.109287,
            41.33856
          ],
          [
            2.109485,
            41.339254
          ],
          [
            2.108719,
            41.339932
          ],
          [
            2.107817,
            41.339396
          ],
          [
            2.107569,
            41.339254
          ],
          [
            2.107632,
            41.339116
          ],
          [
            2.106961,
            41.337456
          ],
          [
            2.107086,
            41.336907
          ],
          [
            2.10713,
            41.335657
          ],
          [
            2.10755,
            41.335457
          ]
        ]
      ]
    ]
  },
  "properties": {
    "location": "gimnas",
    "minutes": 30,
    "mode": "transit"
  }
}
