{
  "type": "Feature",
  "geometry": {
    "type": "MultiPolygon",
    "coordinates": [
      [
        [
          [
            2.114448,
            41.342436
          ],
          [
            2.115002,
            41.341756
          ],
          [
            2.11559,
            41.341495
          ],
          [
            2.11567,
            41.341053
          ],
          [
            2.115855,
            41.339895
          ],
          [
            2.117397,
            41.340107
          ],
          [
            2.119353,
            41.340723
          ],
          [
            2.119793,
            41.340868
          ],
          [
            2.120051,
            41.341053
          ],
          [
            2.120989,
            41.341952
          ],
          [
            2.119793,
            41.341565
          ],
          [
            2.118985,
            41.342245
          ],
          [
            2.11766,
            41.342852
          ],
          [
            2.117459,
            41.342898
          ],
          [
            2.117397,
            41.342911
          ],
          [
            2.115502,
            41.343227
          ],
          [
            2.115133,
            41.34465
          ],
          [
            2.115836,
            41.345277
          ],
          [
            2.115002,
            41.345299
          ],
          [
            2.114138,
            41.34465
          ],
          [
            2.114178,
            41.344031
          ],
          [
            2.114253,
            41.342852
          ],
          [
            2.114448,
            41.342436
          ]
        ]
      ]
    ]
  },
  "properties": {
    "location": "gimnas",
    "minutes": 15,
    "mode": "transit"
  }
}
