{
  "type": "Feature",
  "geometry": {
    "type": "Polygon",
    "coordinates": [
      [
        [
          2.126000,
          41.344623
        ],
        [
          2.122000,
          41.344362
        ],
        [
          2.121000,
          41.343305
        ],
        [
          2.117000,
          41.343422
        ],
        [
          2.114222,
          41.344778
        ],
        [
          2.114222,
          41.343222
        ],
        [
          2.117069,
          41.340931
        ],
        [
          2.115340,
          41.340660
        ],
        [
          2.114828,
          41.337172
        ],
        [
          2.113621,
          41.337000
        ],
        [
          2.115000,
          41.336710
        ],
        [
          2.115140,
          41.337861
        ],
        [
          2.118000,
          41.337283
        ],
        [
          2.121000,
          41.339059
        ],
        [
          2.122000,
          41.340616
        ],
        [
          2.127031,
          41.341969
        ],
        [
          2.127357,
          41.343000
        ],
        [
          2.126000,
          41.344623
        ]
      ]
    ]
  },
  "properties": {
    "location": "gimnas",
    "minutes": 15,
    "mode": "walk"
  }
}
