{
  "type": "Feature",
  "geometry": {
    "type": "Polygon",
    "coordinates": [
      [
        [
          2.125000,
          41.343020
        ],
        [
          2.116571,
          41.343000
        ],
        [
          2.116630,
          41.342000
        ],
        [
          2.119000,
          41.340090
        ],
        [
          2.119831,
          41.341169
        ],
        [
          2.122000,
          41.341534
        ],
        [
          2.122281,
          41.342720
        ],
        [
          2.125156,
          41.343000
        ],
        [
          2.125000,
          41.343020
        ]
      ]
    ]
  },
  "properties": {
    "location": "gimnas",
    "minutes": 5,
    "mode": "walk"
  }
}
