{
  "type": "Feature",
  "geometry": {
    "type": "MultiPolygon",
    "coordinates": [
      [
        [
          [
            2.103027,
            41.322144
          ],
          [
            2.104014,
            41.32201
          ],
          [
            2.105422,
            41.321902
          ],
          [
            2.106413,
            41.322012
          ],
          [
            2.107817,
            41.322685
          ],
          [
            2.10951,
            41.323067
          ],
          [
            2.110212,
            41.323179
          ],
          [
            2.110389,
            41.323199
          ],
          [
            2.111103,
            41.323067
          ],
          [
            2.112151,
            41.322724
          ],
          [
            2.112607,
            41.322405
          ],
          [
            2.11407,
            41.323067
          ],
          [
            2.115002,
            41.32318
          ],
          [
            2.115337,
            41.323318
          ],
          [
            2.116138,
            41.323067
          ],
          [
            2.115614,
            41.321727
          ],
          [
            2.117397,
            41.321283
          ],
          [
            2.118881,
            41.323067
          ],
          [
            2.119793,
            41.323211
          ],
          [
            2.121441,
            41.324865
          ],
          [
            2.122188,
            41.325578
          ],
          [
            2.123975,
            41.326664
          ],
          [
            2.124583,
            41.326825
          ],
          [
            2.125008,
            41.326984
          ],
          [
            2.126301,
            41.326664
          ],
          [
            2.126808,
            41.326536
          ],
          [
            2.126978,
            41.326527
          ],
          [
            2.127316,
            41.326664
          ],
          [
            2.129373,
            41.32768
          ],
          [
            2.130971,
            41.327864
          ],
          [
            2.131768,
            41.32822
          ],
          [
            2.133744,
            41.328463
          ],
          [
            2.134163,
            41.328896
          ],
          [
            2.135602,
            41.330261
          ],
          [
            2.136558,
            41.330698
          ],
          [
            2.136895,
            41.330514
          ],
          [
            2.138954,
            41.331025
          ],
          [
            2.141,
            41.33206
          ],
          [
            2.14075,
            41.333409
          ],
          [
            2.140781,
            41.333859
          ],
          [
            2.140672,
            41.335149
          ],
          [
            2.139355,
            41.335657
          ],
          [
            2.139073,
            41.335747
          ],
          [
            2.138954,
            41.335879
          ],
          [
            2.138544,
            41.337148
          ],
          [
            2.137436,
            41.337456
          ],
          [
            2.137528,
            41.338184
          ],
          [
            2.136558,
            41.338591
          ],
          [
            2.135266,
            41.337456
          ],
          [
            2.134163,
            41.337041
          ],
          [
            2.133618,
            41.337046
          ],
          [
            2.133496,
            41.337456
          ],
          [
            2.134163,
            41.337911
          ],
          [
            2.136437,
            41.339254
          ],
          [
            2.136558,
            41.339552
          ],
          [
            2.138551,
            41.341053
          ],
          [
            2.13814,
            41.342241
          ],
          [
            2.137518,
            41.342852
          ],
          [
            2.137451,
            41.343522
          ],
          [
            2.138068,
            41.34465
          ],
          [
            2.137707,
            41.345513
          ],
          [
            2.136558,
            41.345877
          ],
          [
            2.135852,
            41.345919
          ],
          [
            2.134864,
            41.346449
          ],
          [
            2.135049,
            41.347114
          ],
          [
            2.136026,
            41.348248
          ],
          [
            2.136558,
            41.349116
          ],
          [
            2.137101,
            41.350046
          ],
          [
            2.137731,
            41.350927
          ],
          [
            2.138278,
            41.351845
          ],
          [
            2.138135,
            41.353029
          ],
          [
            2.138299,
            41.353644
          ],
          [
            2.138954,
            41.354952
          ],
          [
            2.139277,
            41.355442
          ],
          [
            2.139212,
            41.355637
          ],
          [
            2.138954,
            41.355654
          ],
          [
            2.137139,
            41.355878
          ],
          [
            2.136558,
            41.356022
          ],
          [
            2.13435,
            41.355583
          ],
          [
            2.134163,
            41.355571
          ],
          [
            2.13234,
            41.355872
          ],
          [
            2.132096,
            41.357241
          ],
          [
            2.132048,
            41.357451
          ],
          [
            2.131768,
            41.357797
          ],
          [
            2.131423,
            41.35878
          ],
          [
            2.13082,
            41.35904
          ],
          [
            2.130296,
            41.359732
          ],
          [
            2.129373,
            41.360541
          ],
          [
            2.12921,
            41.360716
          ],
          [
            2.126978,
            41.360722
          ],
          [
            2.126892,
            41.360774
          ],
          [
            2.126576,
            41.360838
          ],
          [
            2.125874,
            41.361808
          ],
          [
            2.124583,
            41.362374
          ],
          [
            2.12438,
            41.362485
          ],
          [
            2.123463,
            41.362637
          ],
          [
            2.122479,
            41.362856
          ],
          [
            2.122188,
            41.36289
          ],
          [
            2.121036,
            41.363571
          ],
          [
            2.119793,
            41.364124
          ],
          [
            2.119477,
            41.364199
          ],
          [
            2.117397,
            41.363861
          ],
          [
            2.115812,
            41.363245
          ],
          [
            2.115002,
            41.363113
          ],
          [
            2.114703,
            41.362637
          ],
          [
            2.112931,
            41.361082
          ],
          [
            2.113006,
            41.360838
          ],
          [
            2.114567,
            41.360511
          ],
          [
            2.115002,
            41.359793
          ],
          [
            2.115094,
            41.359108
          ],
          [
            2.115215,
            41.35904
          ],
          [
            2.115743,
            41.357797
          ],
          [
            2.116618,
            41.357241
          ],
          [
            2.117051,
            41.356981
          ],
          [
            2.117397,
            41.356857
          ],
          [
            2.118952,
            41.356609
          ],
          [
            2.119793,
            41.356245
          ],
          [
            2.120228,
            41.355769
          ],
          [
            2.120223,
            41.355442
          ],
          [
            2.119965,
            41.353773
          ],
          [
            2.120176,
            41.353644
          ],
          [
            2.121138,
            41.352855
          ],
          [
            2.122188,
            41.352438
          ],
          [
            2.12268,
            41.352214
          ],
          [
            2.123037,
            41.351845
          ],
          [
            2.123652,
            41.351146
          ],
          [
            2.124147,
            41.350046
          ],
          [
            2.123899,
            41.349533
          ],
          [
            2.124055,
            41.348248
          ],
          [
            2.12415,
            41.347923
          ],
          [
            2.124583,
            41.347293
          ],
          [
            2.125087,
            41.346828
          ],
          [
            2.126978,
            41.347216
          ],
          [
            2.127776,
            41.347048
          ],
          [
            2.129373,
            41.34714
          ],
          [
            2.13006,
            41.346965
          ],
          [
            2.131768,
            41.346621
          ],
          [
            2.132043,
            41.346655
          ],
          [
            2.132811,
            41.346449
          ],
          [
            2.131768,
            41.34639
          ],
          [
            2.131728,
            41.346419
          ],
          [
            2.129373,
            41.34634
          ],
          [
            2.129206,
            41.346324
          ],
          [
            2.126978,
            41.346347
          ],
          [
            2.126684,
            41.346228
          ],
          [
            2.124583,
            41.346363
          ],
          [
            2.124476,
            41.346369
          ],
          [
            2.122188,
            41.346102
          ],
          [
            2.121958,
            41.346277
          ],
          [
            2.119793,
            41.34589
          ],
          [
            2.118741,
            41.345659
          ],
          [
            2.117397,
            41.345234
          ],
          [
            2.115836,
            41.345277
          ],
          [
            2.115002,
            41.345299
          ],
          [
            2.114138,
            41.34465
          ],
          [
            2.114178,
            41.344031
          ],
          [
            2.114253,
            41.342852
          ],
          [
            2.114448,
            41.342436
          ],
          [
            2.115002,
            41.341756
          ],
          [
            2.11559,
            41.341495
          ],
          [
            2.11567,
            41.341053
          ],
          [
            2.115002,
            41.339975
          ],
          [
            2.113151,
            41.339254
          ],
          [
            2.112607,
            41.339156
          ],
          [
            2.112391,
            41.339092
          ],
          [
            2.110212,
            41.338546
          ],
          [
            2.109287,
            41.33856
          ],
          [
            2.109485,
            41.339254
          ],
          [
            2.108719,
            41.339932
          ],
          [
            2.107855,
            41.341053
          ],
          [
            2.107839,
            41.34107
          ],
          [
            2.107817,
            41.341082
          ],
          [
            2.107703,
            41.341053
          ],
          [
            2.105422,
            41.33939
          ],
          [
            2.105335,
            41.339254
          ],
          [
            2.103027,
            41.33799
          ],
          [
            2.10192,
            41.337456
          ],
          [
            2.101394,
            41.33623
          ],
          [
            2.101404,
            41.335657
          ],
          [
            2.100987,
            41.334125
          ],
          [
            2.102293,
            41.333859
          ],
          [
            2.100631,
            41.333414
          ],
          [
            2.098253,
            41.33206
          ],
          [
            2.098236,
            41.332034
          ],
          [
            2.097284,
            41.330261
          ],
          [
            2.096005,
            41.328585
          ],
          [
            2.095913,
            41.328463
          ],
          [
            2.096161,
            41.326904
          ],
          [
            2.096155,
            41.326664
          ],
          [
            2.096393,
            41.325279
          ],
          [
            2.098236,
            41.325356
          ],
          [
            2.09873,
            41.325236
          ],
          [
            2.099777,
            41.324865
          ],
          [
            2.10001,
            41.324398
          ],
          [
            2.100631,
            41.324145
          ],
          [
            2.101618,
            41.323808
          ],
          [
            2.10209,
            41.323067
          ],
          [
            2.101967,
            41.322271
          ],
          [
            2.103027,
            41.322144
          ]
        ]
      ],
      [
        [
          [
            2.084789,
            41.327357
          ],
          [
            2.086261,
            41.328427
          ],
          [
            2.087972,
            41.327949
          ],
          [
            2.088656,
            41.328012
          ],
          [
            2.090629,
            41.328145
          ],
          [
            2.091051,
            41.328137
          ],
          [
            2.091597,
            41.328463
          ],
          [
            2.093446,
            41.329638
          ],
          [
            2.094128,
            41.330261
          ],
          [
            2.094247,
            41.330863
          ],
          [
            2.093568,
            41.33206
          ],
          [
            2.093537,
            41.332128
          ],
          [
            2.093446,
            41.332194
          ],
          [
            2.092859,
            41.333418
          ],
          [
            2.091051,
            41.333369
          ],
          [
            2.0898,
            41.332919
          ],
          [
            2.088656,
            41.332313
          ],
          [
            2.088318,
            41.33206
          ],
          [
            2.087083,
            41.330879
          ],
          [
            2.086636,
            41.330261
          ],
          [
            2.086261,
            41.330097
          ],
          [
            2.084061,
            41.328463
          ],
          [
            2.084789,
            41.327357
          ]
        ]
      ],
      [
        [
          [
            2.090332,
            41.320728
          ],
          [
            2.091051,
            41.320701
          ],
          [
            2.09201,
            41.32019
          ],
          [
            2.093263,
            41.319469
          ],
          [
            2.093198,
            41.319283
          ],
          [
            2.093446,
            41.319368
          ],
          [
            2.0937,
            41.319469
          ],
          [
            2.09396,
            41.319856
          ],
          [
            2.095439,
            41.321268
          ],
          [
            2.095841,
            41.322146
          ],
          [
            2.09639,
            41.323067
          ],
          [
            2.096607,
            41.323642
          ],
          [
            2.095841,
            41.323734
          ],
          [
            2.095056,
            41.324276
          ],
          [
            2.093446,
            41.324636
          ],
          [
            2.092772,
            41.324359
          ],
          [
            2.091051,
            41.324109
          ],
          [
            2.090422,
            41.323067
          ],
          [
            2.090172,
            41.322407
          ],
          [
            2.09011,
            41.321268
          ],
          [
            2.090332,
            41.320728
          ]
        ]
      ],
      [
        [
          [
            2.11407,
            41.367333
          ],
          [
            2.115002,
            41.366518
          ],
          [
            2.115179,
            41.366367
          ],
          [
            2.115444,
            41.366234
          ],
          [
            2.116377,
            41.365468
          ],
          [
            2.117397,
            41.365312
          ],
          [
            2.117972,
            41.366234
          ],
          [
            2.119324,
            41.367681
          ],
          [
            2.119604,
            41.368033
          ],
          [
            2.119576,
            41.369668
          ],
          [
            2.119426,
            41.369831
          ],
          [
            2.118284,
            41.370498
          ],
          [
            2.117397,
            41.37088
          ],
          [
            2.115754,
            41.370396
          ],
          [
            2.115002,
            41.370199
          ],
          [
            2.114078,
            41.369831
          ],
          [
            2.113957,
            41.369046
          ],
          [
            2.113456,
            41.368033
          ],
          [
            2.11407,
            41.367333
          ]
        ]
      ],
      [
        [
          [
            2.11713,
            41.375026
          ],
          [
            2.117397,
            41.374895
          ],
          [
            2.119411,
            41.375227
          ],
          [
            2.119793,
            41.375682
          ],
          [
            2.120109,
            41.377026
          ],
          [
            2.11993,
            41.377129
          ],
          [
            2.119793,
            41.377161
          ],
          [
            2.117777,
            41.377311
          ],
          [
            2.117397,
            41.377321
          ],
          [
            2.11677,
            41.377026
          ],
          [
            2.116757,
            41.376545
          ],
          [
            2.116872,
            41.375227
          ],
          [
            2.11713,
            41.375026
          ]
        ]
      ],
      [
        [
          [
            2.088355,
            41.315646
          ],
          [
            2.088656,
            41.315654
          ],
          [
            2.090867,
            41.315872
          ],
          [
            2.089119,
            41.31622
          ],
          [
            2.088656,
            41.317199
          ],
          [
            2.087798,
            41.315872
          ],
          [
            2.088355,
            41.315646
          ]
        ]
      ]
    ]
  },
  "properties": {
    "location": "gimnas",
    "minutes": 45,
    "mode": "transit"
  }
}
